{
"type": "FeatureCollection",
"name": "flagged_overlaps",
"crs": { "type": "name", "properties": { "name": "urn:ogc:def:crs:OGC:1.3:CRS84" } },
"features": [
{ "type": "Feature", "properties": { "issue": "small structure (0.0 m²) — field check" }, "geometry": { "type": "Polygon", "coordinates": [ [ [ 0.000694459669496, 0.000257374334297 ], [ 0.000694459717701, 0.000257374334297 ], [ 0.000694459717688, 0.000257374038269 ], [ 0.000694459669496, 0.000257374038269 ], [ 0.000694459669496, 0.000257374334297 ] ] ] } },
{ "type": "Feature", "properties": { "issue": "small structure (0.0 m²) — field check" }, "geometry": { "type": "Polygon", "coordinates": [ [ [ 0.000694459621304, 0.000257373953689 ], [ 0.000694459669509, 0.000257373953689 ], [ 0.000694459669496, 0.00025737382682 ], [ 0.000694459621304, 0.00025737382682 ], [ 0.000694459621304, 0.000257373953689 ] ] ] } },
{ "type": "Feature", "properties": { "issue": "small structure (0.0 m²) — field check" }, "geometry": { "type": "Polygon", "coordinates": [ [ [ 0.000694459573125, 0.000257373784531 ], [ 0.000694459621304, 0.000257373784531 ], [ 0.000694459621304, 0.000257373361634 ], [ 0.000694459573125, 0.000257373361634 ], [ 0.000694459573125, 0.000257373784531 ] ] ] } },
{ "type": "Feature", "properties": { "issue": "small structure (0.0 m²) — field check" }, "geometry": { "type": "Polygon", "coordinates": [ [ [ 0.000694459621304, 0.000257373319344 ], [ 0.000694459669509, 0.000257373319344 ], [ 0.000694459669509, 0.000257373277054 ], [ 0.000694459621304, 0.000257373277054 ], [ 0.000694459621304, 0.000257373319344 ] ] ] } },
{ "type": "Feature", "properties": { "issue": "small structure (0.0 m²) — field check" }, "geometry": { "type": "Polygon", "coordinates": [ [ [ 0.000694459669509, 0.000257373277054 ], [ 0.000694459717701, 0.000257373277054 ], [ 0.000694459717701, 0.000257373234764 ], [ 0.000694459669509, 0.000257373234764 ], [ 0.000694459669509, 0.000257373277054 ] ] ] } },
{ "type": "Feature", "properties": { "issue": "small structure (0.0 m²) — field check" }, "geometry": { "type": "Polygon", "coordinates": [ [ [ 0.000694460729651, 0.000257373277054 ], [ 0.000694460922418, 0.000257373277054 ], [ 0.000694460922418, 0.000257373234764 ], [ 0.000694460729651, 0.000257373234764 ], [ 0.000694460729651, 0.000257373277054 ] ] ] } },
{ "type": "Feature", "properties": { "issue": "small structure (0.0 m²) — field check" }, "geometry": { "type": "Polygon", "coordinates": [ [ [ 0.000694459910442, 0.000257373234764 ], [ 0.000694459958634, 0.000257373234764 ], [ 0.000694459958634, 0.000257373192475 ], [ 0.000694459910442, 0.000257373192475 ], [ 0.000694459910442, 0.000257373234764 ] ] ] } },
{ "type": "Feature", "properties": { "issue": "small structure (0.0 m²) — field check" }, "geometry": { "type": "Polygon", "coordinates": [ [ [ 0.000694451959208, 0.000257362197157 ], [ 0.000694452007387, 0.000257362197157 ], [ 0.000694452007387, 0.000257362154867 ], [ 0.000694451959208, 0.000257362154867 ], [ 0.000694451959208, 0.000257362197157 ] ] ] } },
{ "type": "Feature", "properties": { "issue": "small structure (0.0 m²) — field check" }, "geometry": { "type": "Polygon", "coordinates": [ [ [ 0.000694452392909, 0.000257362197157 ], [ 0.0006944524411, 0.000257362197157 ], [ 0.000694452441088, 0.000257362154867 ], [ 0.000694452392896, 0.000257362154867 ], [ 0.000694452392909, 0.000257362197157 ] ] ] } },
{ "type": "Feature", "properties": { "issue": "small structure (0.0 m²) — field check" }, "geometry": { "type": "Polygon", "coordinates": [ [ [ 0.000694451911016, 0.000257362154867 ], [ 0.000694451959208, 0.000257362154867 ], [ 0.000694451959208, 0.000257362112577 ], [ 0.000694451911016, 0.000257362112577 ], [ 0.000694451911016, 0.000257362154867 ] ] ] } },
{ "type": "Feature", "properties": { "issue": "small structure (0.0 m²) — field check" }, "geometry": { "type": "Polygon", "coordinates": [ [ [ 0.000694451862825, 0.000257361901129 ], [ 0.000694451911004, 0.000257361901129 ], [ 0.000694451911004, 0.000257361816549 ], [ 0.000694451862825, 0.000257361816549 ], [ 0.000694451862825, 0.000257361901129 ] ] ] } },
{ "type": "Feature", "properties": { "issue": "small structure (0.0 m²) — field check" }, "geometry": { "type": "Polygon", "coordinates": [ [ [ 0.000694451814646, 0.000257361647391 ], [ 0.000694451862812, 0.000257361647391 ], [ 0.000694451862812, 0.000257361605101 ], [ 0.000694451814633, 0.000257361605101 ], [ 0.000694451814646, 0.000257361647391 ] ] ] } },
{ "type": "Feature", "properties": { "issue": "small structure (0.0 m²) — field check" }, "geometry": { "type": "Polygon", "coordinates": [ [ [ 0.000694452441088, 0.000257362154867 ], [ 0.000694452537471, 0.000257362154867 ], [ 0.000694452537471, 0.000257362112577 ], [ 0.000694452682046, 0.000257362112577 ], [ 0.000694452682046, 0.000257362070288 ], [ 0.000694452730238, 0.000257362070288 ], [ 0.000694452730238, 0.000257361985708 ], [ 0.00069445277843, 0.000257361985708 ], [ 0.00069445277843, 0.000257361943419 ], [ 0.000694452730225, 0.000257361943419 ], [ 0.000694452730225, 0.000257361858839 ], [ 0.000694452682046, 0.000257361858839 ], [ 0.000694452682046, 0.00025736168968 ], [ 0.000694452633842, 0.00025736168968 ], [ 0.000694452633842, 0.000257361647391 ], [ 0.000694452585663, 0.000257361647391 ], [ 0.000694452585663, 0.000257361562811 ], [ 0.000694452537484, 0.000257361562811 ], [ 0.000694452537484, 0.000257361478232 ], [ 0.000694452489292, 0.000257361478232 ], [ 0.000694452489279, 0.000257361393652 ], [ 0.000694452441113, 0.000257361393652 ], [ 0.000694452441113, 0.000257361351363 ], [ 0.000694452392909, 0.000257361351363 ], [ 0.000694452392909, 0.000257361435942 ], [ 0.0006944524411, 0.000257361435942 ], [ 0.0006944524411, 0.000257361520521 ], [ 0.000694452489292, 0.000257361520521 ], [ 0.000694452489292, 0.000257361647391 ], [ 0.000694452537484, 0.000257361647391 ], [ 0.000694452537484, 0.000257361985708 ], [ 0.000694452489292, 0.000257361985708 ], [ 0.000694452489292, 0.000257362112577 ], [ 0.000694452441088, 0.000257362112577 ], [ 0.000694452441088, 0.000257362154867 ] ] ] } },
{ "type": "Feature", "properties": { "issue": "small structure (0.0 m²) — field check" }, "geometry": { "type": "Polygon", "coordinates": [ [ [ 0.000694452296525, 0.000257361351363 ], [ 0.000694452392909, 0.000257361351363 ], [ 0.000694452392909, 0.000257361309073 ], [ 0.000694452296538, 0.000257361309073 ], [ 0.000694452296525, 0.000257361351363 ] ] ] } },
{ "type": "Feature", "properties": { "issue": "small structure (0.0 m²) — field check" }, "geometry": { "type": "Polygon", "coordinates": [ [ [ 0.000694451814646, 0.000257361309073 ], [ 0.000694451862812, 0.000257361309073 ], [ 0.000694451862812, 0.000257361266783 ], [ 0.000694451814646, 0.000257361266783 ], [ 0.000694451814646, 0.000257361309073 ] ] ] } },
{ "type": "Feature", "properties": { "issue": "small structure (0.0 m²) — field check" }, "geometry": { "type": "Polygon", "coordinates": [ [ [ 0.000694452200154, 0.000257361309073 ], [ 0.000694452248346, 0.000257361309073 ], [ 0.000694452248346, 0.000257361266783 ], [ 0.000694452200154, 0.000257361266783 ], [ 0.000694452200154, 0.000257361309073 ] ] ] } },
{ "type": "Feature", "properties": { "issue": "small structure (0.0 m²) — field check" }, "geometry": { "type": "Polygon", "coordinates": [ [ [ 0.000694451862812, 0.000257361266783 ], [ 0.000694451911016, 0.000257361266783 ], [ 0.000694451911004, 0.000257361224494 ], [ 0.000694451862812, 0.000257361224494 ], [ 0.000694451862812, 0.000257361266783 ] ] ] } },
{ "type": "Feature", "properties": { "issue": "small structure (0.0 m²) — field check" }, "geometry": { "type": "Polygon", "coordinates": [ [ [ 0.00069445215195, 0.000257361266783 ], [ 0.000694452200154, 0.000257361266783 ], [ 0.000694452200154, 0.000257361224494 ], [ 0.00069445215195, 0.000257361224494 ], [ 0.00069445215195, 0.000257361266783 ] ] ] } },
{ "type": "Feature", "properties": { "issue": "small structure (0.0 m²) — field check" }, "geometry": { "type": "Polygon", "coordinates": [ [ [ 0.000694451911004, 0.000257361224494 ], [ 0.00069445215195, 0.000257361224494 ], [ 0.00069445215195, 0.000257361182205 ], [ 0.000694452103771, 0.000257361182205 ], [ 0.000694452103771, 0.000257361139915 ], [ 0.000694451911004, 0.000257361139915 ], [ 0.000694451911004, 0.000257361224494 ] ] ] } },
{ "type": "Feature", "properties": { "issue": "small structure (0.0 m²) — field check" }, "geometry": { "type": "Polygon", "coordinates": [ [ [ 0.00069446593412, 0.000257359448328 ], [ 0.000694466030491, 0.000257359448328 ], [ 0.000694466030491, 0.000257359363748 ], [ 0.000694465982312, 0.000257359363748 ], [ 0.000694465982312, 0.000257359406038 ], [ 0.00069446593412, 0.000257359406038 ], [ 0.00069446593412, 0.000257359448328 ] ] ] } },
{ "type": "Feature", "properties": { "issue": "small structure (0.0 m²) — field check" }, "geometry": { "type": "Polygon", "coordinates": [ [ [ 0.000694453742202, 0.000257358856272 ], [ 0.000694453790393, 0.000257358856272 ], [ 0.000694453790393, 0.000257358813982 ], [ 0.000694453742214, 0.000257358813982 ], [ 0.000694453742202, 0.000257358856272 ] ] ] } },
{ "type": "Feature", "properties": { "issue": "small structure (0.0 m²) — field check" }, "geometry": { "type": "Polygon", "coordinates": [ [ [ 0.000694459476742, 0.000257358560244 ], [ 0.000694459524933, 0.000257358560244 ], [ 0.000694459524933, 0.000257358517954 ], [ 0.000694459476742, 0.000257358517954 ], [ 0.000694459476742, 0.000257358560244 ] ] ] } },
{ "type": "Feature", "properties": { "issue": "small structure (0.0 m²) — field check" }, "geometry": { "type": "Polygon", "coordinates": [ [ [ 0.000694452874813, 0.000257358517954 ], [ 0.000694453019363, 0.000257358517954 ], [ 0.000694453019363, 0.000257358475664 ], [ 0.000694452874813, 0.000257358475664 ], [ 0.000694452874813, 0.000257358517954 ] ] ] } },
{ "type": "Feature", "properties": { "issue": "small structure (0.0 m²) — field check" }, "geometry": { "type": "Polygon", "coordinates": [ [ [ 0.000694453645831, 0.000257358517954 ], [ 0.000694453694023, 0.000257358517954 ], [ 0.000694453694023, 0.000257358475664 ], [ 0.000694453645831, 0.000257358475664 ], [ 0.000694453645831, 0.000257358517954 ] ] ] } },
{ "type": "Feature", "properties": { "issue": "small structure (0.0 m²) — field check" }, "geometry": { "type": "Polygon", "coordinates": [ [ [ 0.00069445942855, 0.000257358348795 ], [ 0.000694459476742, 0.000257358348795 ], [ 0.000694459476742, 0.000257358264216 ], [ 0.00069445942855, 0.000257358264216 ], [ 0.00069445942855, 0.000257358348795 ] ] ] } },
{ "type": "Feature", "properties": { "issue": "small structure (0.0 m²) — field check" }, "geometry": { "type": "Polygon", "coordinates": [ [ [ 0.000694459380358, 0.000257358010477 ], [ 0.00069445942855, 0.000257358010477 ], [ 0.00069445942855, 0.000257357968188 ], [ 0.000694459380358, 0.000257357968188 ], [ 0.000694459380358, 0.000257358010477 ] ] ] } },
{ "type": "Feature", "properties": { "issue": "small structure (0.0 m²) — field check" }, "geometry": { "type": "Polygon", "coordinates": [ [ [ 0.000694459332166, 0.000257357925899 ], [ 0.000694459380358, 0.000257357925899 ], [ 0.000694459380358, 0.00025735784132 ], [ 0.000694459332166, 0.00025735784132 ], [ 0.000694459332166, 0.000257357925899 ] ] ] } },
{ "type": "Feature", "properties": { "issue": "small structure (0.0 m²) — field check" }, "geometry": { "type": "Polygon", "coordinates": [ [ [ 0.000694460633293, 0.000257357968188 ], [ 0.000694460681472, 0.000257357968188 ], [ 0.000694460681472, 0.00025735779903 ], [ 0.00069446063328, 0.00025735779903 ], [ 0.000694460633293, 0.000257357968188 ] ] ] } },
{ "type": "Feature", "properties": { "issue": "small structure (0.0 m²) — field check" }, "geometry": { "type": "Polygon", "coordinates": [ [ [ 0.000694476873091, 0.000257357206974 ], [ 0.000694476921295, 0.000257357206974 ], [ 0.000694476921295, 0.000257357164684 ], [ 0.000694476873091, 0.000257357164684 ], [ 0.000694476873091, 0.000257357206974 ] ] ] } },
{ "type": "Feature", "properties": { "issue": "small structure (0.0 m²) — field check" }, "geometry": { "type": "Polygon", "coordinates": [ [ [ 0.000694476487595, 0.000257357164684 ], [ 0.000694476535774, 0.000257357164684 ], [ 0.000694476535774, 0.000257357122395 ], [ 0.000694476487595, 0.000257357122395 ], [ 0.000694476487595, 0.000257357164684 ] ] ] } },
{ "type": "Feature", "properties": { "issue": "small structure (0.0 m²) — field check" }, "geometry": { "type": "Polygon", "coordinates": [ [ [ 0.000694444007961, 0.000257357249264 ], [ 0.000694444104332, 0.000257357249264 ], [ 0.000694444104332, 0.000257357206974 ], [ 0.000694444200703, 0.000257357206974 ], [ 0.000694444200716, 0.000257357164684 ], [ 0.000694444248907, 0.000257357164684 ], [ 0.000694444248907, 0.000257357080105 ], [ 0.000694444200716, 0.000257357080105 ], [ 0.000694444200716, 0.000257357037815 ], [ 0.000694444104332, 0.000257357037815 ], [ 0.000694444104332, 0.000257357080105 ], [ 0.000694444007961, 0.000257357080105 ], [ 0.000694444007961, 0.000257357249264 ] ] ] } },
{ "type": "Feature", "properties": { "issue": "small structure (0.0 m²) — field check" }, "geometry": { "type": "Polygon", "coordinates": [ [ [ 0.000694476294841, 0.000257356403469 ], [ 0.000694476583978, 0.000257356403469 ], [ 0.000694476583978, 0.00025735636118 ], [ 0.000694476294841, 0.00025735636118 ], [ 0.000694476294841, 0.000257356403469 ] ] ] } },
{ "type": "Feature", "properties": { "issue": "small structure (0.0 m²) — field check" }, "geometry": { "type": "Polygon", "coordinates": [ [ [ 0.000694468150814, 0.000257353231743 ], [ 0.000694468199019, 0.000257353231743 ], [ 0.000694468199019, 0.000257353189453 ], [ 0.000694468150814, 0.000257353189453 ], [ 0.000694468150814, 0.000257353231743 ] ] ] } },
{ "type": "Feature", "properties": { "issue": "small structure (0.0 m²) — field check" }, "geometry": { "type": "Polygon", "coordinates": [ [ [ 0.000694468777294, 0.000257353104874 ], [ 0.000694468825486, 0.000257353104874 ], [ 0.000694468825486, 0.000257353062584 ], [ 0.000694468777294, 0.000257353062584 ], [ 0.000694468777294, 0.000257353104874 ] ] ] } },
{ "type": "Feature", "properties": { "issue": "small structure (0.0 m²) — field check" }, "geometry": { "type": "Polygon", "coordinates": [ [ [ 0.000694468680911, 0.000257352935716 ], [ 0.000694468729102, 0.000257352935716 ], [ 0.000694468729102, 0.000257352893426 ], [ 0.000694468680911, 0.000257352893426 ], [ 0.000694468680911, 0.000257352935716 ] ] ] } },
{ "type": "Feature", "properties": { "issue": "small structure (0.0 m²) — field check" }, "geometry": { "type": "Polygon", "coordinates": [ [ [ 0.000694468632719, 0.000257352851137 ], [ 0.000694468680911, 0.000257352851137 ], [ 0.000694468680911, 0.000257352808847 ], [ 0.000694468632719, 0.000257352808847 ], [ 0.000694468632719, 0.000257352851137 ] ] ] } },
{ "type": "Feature", "properties": { "issue": "small structure (0.0 m²) — field check" }, "geometry": { "type": "Polygon", "coordinates": [ [ [ 0.000694468150827, 0.000257352639688 ], [ 0.000694468295402, 0.000257352639688 ], [ 0.000694468295402, 0.000257352597398 ], [ 0.000694468150827, 0.000257352597398 ], [ 0.000694468150827, 0.000257352639688 ] ] ] } },
{ "type": "Feature", "properties": { "issue": "small structure (0.0 m²) — field check" }, "geometry": { "type": "Polygon", "coordinates": [ [ [ 0.000694473981738, 0.000257348960485 ], [ 0.000694474078108, 0.000257348960485 ], [ 0.000694474078108, 0.000257348918196 ], [ 0.000694474367246, 0.000257348918196 ], [ 0.000694474367246, 0.000257348833616 ], [ 0.000694474415451, 0.000257348833616 ], [ 0.000694474415451, 0.000257348749037 ], [ 0.000694474367246, 0.000257348749037 ], [ 0.000694474367246, 0.000257348579878 ], [ 0.000694473981738, 0.000257348579878 ], [ 0.000694473981738, 0.000257348622168 ], [ 0.000694473933559, 0.000257348622168 ], [ 0.000694473933559, 0.000257348706747 ], [ 0.000694473885354, 0.000257348706747 ], [ 0.000694473885367, 0.000257348875906 ], [ 0.000694473933559, 0.000257348875906 ], [ 0.000694473933559, 0.000257348918196 ], [ 0.000694473981738, 0.000257348918196 ], [ 0.000694473981738, 0.000257348960485 ] ] ] } },
{ "type": "Feature", "properties": { "issue": "small structure (0.0 m²) — field check" }, "geometry": { "type": "Polygon", "coordinates": [ [ [ 0.000694459187617, 0.000257349002775 ], [ 0.000694459332166, 0.000257349002775 ], [ 0.000694459332166, 0.000257348960485 ], [ 0.000694459476742, 0.000257348960485 ], [ 0.000694459476742, 0.000257348918196 ], [ 0.000694459524933, 0.000257348918196 ], [ 0.000694459524921, 0.000257348749037 ], [ 0.000694459476754, 0.000257348749037 ], [ 0.000694459476754, 0.000257348622168 ], [ 0.00069445942855, 0.000257348622168 ], [ 0.00069445942855, 0.000257348537588 ], [ 0.000694459380371, 0.000257348537588 ], [ 0.000694459380371, 0.000257348495298 ], [ 0.000694459139412, 0.000257348495298 ], [ 0.000694459139412, 0.000257348537588 ], [ 0.000694459043041, 0.000257348537588 ], [ 0.000694459043041, 0.000257348579878 ], [ 0.000694458994849, 0.000257348579878 ], [ 0.000694458994849, 0.000257348791326 ], [ 0.000694459043041, 0.000257348791326 ], [ 0.000694459043041, 0.000257348875906 ], [ 0.00069445909122, 0.000257348875906 ], [ 0.00069445909122, 0.000257348918196 ], [ 0.000694459139412, 0.000257348918196 ], [ 0.000694459139412, 0.000257348960485 ], [ 0.000694459187604, 0.000257348960485 ], [ 0.000694459187617, 0.000257349002775 ] ] ] } },
{ "type": "Feature", "properties": { "issue": "small structure (0.0 m²) — field check" }, "geometry": { "type": "Polygon", "coordinates": [ [ [ 0.000694453212118, 0.000257348749037 ], [ 0.000694453501268, 0.000257348749037 ], [ 0.000694453501268, 0.000257348706747 ], [ 0.000694453549447, 0.000257348706747 ], [ 0.000694453549447, 0.000257348537588 ], [ 0.000694453501268, 0.000257348537588 ], [ 0.000694453501256, 0.000257348410719 ], [ 0.000694453453064, 0.000257348410719 ], [ 0.000694453453064, 0.000257348368429 ], [ 0.000694453212118, 0.000257348368429 ], [ 0.000694453212118, 0.000257348410719 ], [ 0.000694453163939, 0.000257348410719 ], [ 0.000694453163939, 0.000257348664457 ], [ 0.000694453212118, 0.000257348664457 ], [ 0.000694453212118, 0.000257348749037 ] ] ] } },
{ "type": "Feature", "properties": { "issue": "small structure (0.0 m²) — field check" }, "geometry": { "type": "Polygon", "coordinates": [ [ [ 0.000694445742776, 0.000257342913061 ], [ 0.000694445790968, 0.000257342913061 ], [ 0.000694445790968, 0.000257342870771 ], [ 0.000694445742789, 0.000257342870771 ], [ 0.000694445742776, 0.000257342913061 ] ] ] } },
{ "type": "Feature", "properties": { "issue": "small structure (0.0 m²) — field check" }, "geometry": { "type": "Polygon", "coordinates": [ [ [ 0.000694447718524, 0.000257342447874 ], [ 0.000694447766728, 0.000257342447874 ], [ 0.000694447766728, 0.000257342405584 ], [ 0.000694447718524, 0.000257342405584 ], [ 0.000694447718524, 0.000257342447874 ] ] ] } },
{ "type": "Feature", "properties": { "issue": "small structure (0.0 m²) — field check" }, "geometry": { "type": "Polygon", "coordinates": [ [ [ 0.000694447670357, 0.000257342363294 ], [ 0.000694447718536, 0.000257342363294 ], [ 0.000694447718536, 0.000257342321005 ], [ 0.000694447670357, 0.000257342321005 ], [ 0.000694447670357, 0.000257342363294 ] ] ] } },
{ "type": "Feature", "properties": { "issue": "small structure (0.0 m²) — field check" }, "geometry": { "type": "Polygon", "coordinates": [ [ [ 0.000694446031914, 0.000257342236425 ], [ 0.000694446128297, 0.000257342236425 ], [ 0.000694446128297, 0.000257342194136 ], [ 0.000694446031914, 0.000257342194136 ], [ 0.000694446031914, 0.000257342236425 ] ] ] } },
{ "type": "Feature", "properties": { "issue": "small structure (0.0 m²) — field check" }, "geometry": { "type": "Polygon", "coordinates": [ [ [ 0.000694447622166, 0.000257342236425 ], [ 0.000694447670357, 0.000257342236425 ], [ 0.000694447670357, 0.000257342109556 ], [ 0.000694447622166, 0.000257342109556 ], [ 0.000694447622166, 0.000257342236425 ] ] ] } },
{ "type": "Feature", "properties": { "issue": "small structure (0.0 m²) — field check" }, "geometry": { "type": "Polygon", "coordinates": [ [ [ 0.000694446128297, 0.000257342194136 ], [ 0.00069444627286, 0.000257342194136 ], [ 0.00069444627286, 0.000257342151846 ], [ 0.000694446321052, 0.000257342151846 ], [ 0.000694446321052, 0.000257342109556 ], [ 0.000694446176476, 0.000257342109556 ], [ 0.000694446176476, 0.000257342151846 ], [ 0.000694446128297, 0.000257342151846 ], [ 0.000694446128297, 0.000257342194136 ] ] ] } }
]
}
