{
"type": "FeatureCollection",
"name": "parcels_final",
"crs": { "type": "name", "properties": { "name": "urn:ogc:def:crs:OGC:1.3:CRS84" } },
"features": [
{ "type": "Feature", "properties": { "parcel_id": "P001", "area_m2": 0.0, "buildings": 1, "bldg_area": 8.6620893834404137e-09, "land_use": "Low-density/open" }, "geometry": { "type": "Polygon", "coordinates": [ [ [ 0.000694442165123, 0.00025736534514 ], [ 0.000694442230489, 0.000257364095335 ], [ 0.000694440976715, 0.000257363028328 ], [ 0.000694440056427, 0.000257362924618 ], [ 0.00069444005644, 0.000257366784837 ], [ 0.000694442165123, 0.00025736534514 ] ] ] } },
{ "type": "Feature", "properties": { "parcel_id": "P002", "area_m2": 0.0, "buildings": 2, "bldg_area": 3.2729060760915194e-08, "land_use": "Low-density/open" }, "geometry": { "type": "Polygon", "coordinates": [ [ [ 0.000694442527095, 0.000257360583981 ], [ 0.000694442400852, 0.000257359258006 ], [ 0.000694441895959, 0.000257358795979 ], [ 0.000694440056427, 0.000257359888718 ], [ 0.000694440056427, 0.000257360323706 ], [ 0.00069444202243, 0.000257360884247 ], [ 0.000694442527095, 0.000257360583981 ] ] ] } },
{ "type": "Feature", "properties": { "parcel_id": "P003", "area_m2": 0.0, "buildings": 1, "bldg_area": 1.1642050162595904e-08, "land_use": "Low-density/open" }, "geometry": { "type": "Polygon", "coordinates": [ [ [ 0.00069444202243, 0.000257360884247 ], [ 0.000694440976715, 0.000257363028328 ], [ 0.000694442230489, 0.000257364095335 ], [ 0.000694444792528, 0.000257362642995 ], [ 0.000694444860859, 0.000257361739197 ], [ 0.000694442527095, 0.000257360583981 ], [ 0.00069444202243, 0.000257360884247 ] ] ] } },
{ "type": "Feature", "properties": { "parcel_id": "P004", "area_m2": 0.0, "buildings": 1, "bldg_area": 9.1419135766853807e-09, "land_use": "Low-density/open" }, "geometry": { "type": "Polygon", "coordinates": [ [ [ 0.000694441895959, 0.000257358795979 ], [ 0.00069444171412, 0.000257358380172 ], [ 0.000694440056427, 0.000257357071651 ], [ 0.000694440056427, 0.000257359888718 ], [ 0.000694441895959, 0.000257358795979 ] ] ] } },
{ "type": "Feature", "properties": { "parcel_id": "P005", "area_m2": 0.0, "buildings": 1, "bldg_area": 1.9117206015163059e-08, "land_use": "Low-density/open" }, "geometry": { "type": "Polygon", "coordinates": [ [ [ 0.00069444200182, 0.000257345120725 ], [ 0.00069444323772, 0.000257342109556 ], [ 0.00069444005644, 0.000257342109556 ], [ 0.000694440056427, 0.0002573459127 ], [ 0.00069444200182, 0.000257345120725 ] ] ] } },
{ "type": "Feature", "properties": { "parcel_id": "P006", "area_m2": 0.0, "buildings": 1, "bldg_area": 1.7147401432597633e-08, "land_use": "Low-density/open" }, "geometry": { "type": "Polygon", "coordinates": [ [ [ 0.000694440976715, 0.000257363028328 ], [ 0.00069444202243, 0.000257360884247 ], [ 0.000694440056427, 0.000257360323706 ], [ 0.000694440056427, 0.000257362924618 ], [ 0.000694440976715, 0.000257363028328 ] ] ] } },
{ "type": "Feature", "properties": { "parcel_id": "P007", "area_m2": 0.0, "buildings": 2, "bldg_area": 2.0506170785198053e-08, "land_use": "Low-density/open" }, "geometry": { "type": "Polygon", "coordinates": [ [ [ 0.000694446313609, 0.000257342550988 ], [ 0.000694446664984, 0.000257342109556 ], [ 0.000694446119913, 0.000257342109556 ], [ 0.000694446313609, 0.000257342550988 ] ] ] } },
{ "type": "Feature", "properties": { "parcel_id": "P008", "area_m2": 0.0, "buildings": 2, "bldg_area": 3.032993979457601e-08, "land_use": "Low-density/open" }, "geometry": { "type": "Polygon", "coordinates": [ [ [ 0.000694442401603, 0.000257354878217 ], [ 0.000694442993224, 0.000257354084442 ], [ 0.00069444296465, 0.000257353599866 ], [ 0.000694440056427, 0.000257351886418 ], [ 0.000694440056427, 0.000257355065163 ], [ 0.000694442401603, 0.000257354878217 ] ] ] } },
{ "type": "Feature", "properties": { "parcel_id": "P009", "area_m2": 0.0, "buildings": 1, "bldg_area": 6.1366988926322913e-09, "land_use": "Low-density/open" }, "geometry": { "type": "Polygon", "coordinates": [ [ [ 0.000694442401603, 0.000257354878217 ], [ 0.000694442178252, 0.00025735612674 ], [ 0.000694443027269, 0.000257356907869 ], [ 0.000694443092114, 0.000257356917387 ], [ 0.000694443504161, 0.000257356617839 ], [ 0.000694444028075, 0.000257355065461 ], [ 0.000694442993224, 0.000257354084442 ], [ 0.000694442401603, 0.000257354878217 ] ] ] } },
{ "type": "Feature", "properties": { "parcel_id": "P010", "area_m2": 0.0, "buildings": 1, "bldg_area": 1.9521268493867694e-08, "land_use": "Low-density/open" }, "geometry": { "type": "Polygon", "coordinates": [ [ [ 0.000694442178252, 0.00025735612674 ], [ 0.000694442401603, 0.000257354878217 ], [ 0.000694440056427, 0.000257355065163 ], [ 0.000694440056427, 0.000257357037244 ], [ 0.000694442178252, 0.00025735612674 ] ] ] } },
{ "type": "Feature", "properties": { "parcel_id": "P011", "area_m2": 0.0, "buildings": 1, "bldg_area": 2.9547068742388328e-09, "land_use": "Low-density/open" }, "geometry": { "type": "Polygon", "coordinates": [ [ [ 0.00069444296465, 0.000257353599866 ], [ 0.000694444896176, 0.000257352081506 ], [ 0.000694444182828, 0.000257349761218 ], [ 0.000694440056427, 0.000257349465658 ], [ 0.000694440056427, 0.000257351886418 ], [ 0.00069444296465, 0.000257353599866 ] ] ] } },
{ "type": "Feature", "properties": { "parcel_id": "P012", "area_m2": 0.0, "buildings": 1, "bldg_area": 1.1136972064491454e-08, "land_use": "Low-density/open" }, "geometry": { "type": "Polygon", "coordinates": [ [ [ 0.00069444171412, 0.000257358380172 ], [ 0.000694443027269, 0.000257356907869 ], [ 0.000694442178252, 0.00025735612674 ], [ 0.000694440056427, 0.000257357037244 ], [ 0.000694440056427, 0.000257357071651 ], [ 0.00069444171412, 0.000257358380172 ] ] ] } },
{ "type": "Feature", "properties": { "parcel_id": "P013", "area_m2": 0.0, "buildings": 1, "bldg_area": 6.6670308957296314e-09, "land_use": "Low-density/open" }, "geometry": { "type": "Polygon", "coordinates": [ [ [ 0.000694441895959, 0.000257358795979 ], [ 0.000694442400852, 0.000257359258006 ], [ 0.000694443589133, 0.000257358642333 ], [ 0.000694443511311, 0.000257357554985 ], [ 0.000694443092114, 0.000257356917387 ], [ 0.000694443027269, 0.000257356907869 ], [ 0.00069444171412, 0.000257358380172 ], [ 0.000694441895959, 0.000257358795979 ] ] ] } },
{ "type": "Feature", "properties": { "parcel_id": "P014", "area_m2": 0.0, "buildings": 1, "bldg_area": 1.8511112297582562e-08, "land_use": "Low-density/open" }, "geometry": { "type": "Polygon", "coordinates": [ [ [ 0.000694444945742, 0.000257369847065 ], [ 0.000694444146723, 0.000257369583202 ], [ 0.000694440056427, 0.00025737060033 ], [ 0.000694440056427, 0.000257374588034 ], [ 0.000694444214557, 0.000257374588034 ], [ 0.000694444945742, 0.000257369847065 ] ] ] } },
{ "type": "Feature", "properties": { "parcel_id": "P015", "area_m2": 0.0, "buildings": 1, "bldg_area": 9.2681831012305514e-09, "land_use": "Low-density/open" }, "geometry": { "type": "Polygon", "coordinates": [ [ [ 0.00069444005644, 0.000257366784837 ], [ 0.000694440056427, 0.00025737060033 ], [ 0.000694444146723, 0.000257369583202 ], [ 0.000694443666853, 0.000257366531485 ], [ 0.000694442165123, 0.00025736534514 ], [ 0.00069444005644, 0.000257366784837 ] ] ] } },
{ "type": "Feature", "properties": { "parcel_id": "P016", "area_m2": 0.0, "buildings": 1, "bldg_area": 1.0101561963251548e-08, "land_use": "Low-density/open" }, "geometry": { "type": "Polygon", "coordinates": [ [ [ 0.000694442400852, 0.000257359258006 ], [ 0.000694442527095, 0.000257360583981 ], [ 0.000694444860859, 0.000257361739197 ], [ 0.000694445450635, 0.000257361048274 ], [ 0.000694444970944, 0.000257358978132 ], [ 0.000694443589133, 0.000257358642333 ], [ 0.000694442400852, 0.000257359258006 ] ] ] } },
{ "type": "Feature", "properties": { "parcel_id": "P017", "area_m2": 0.0, "buildings": 1, "bldg_area": 2.8233865687293889e-08, "land_use": "Low-density/open" }, "geometry": { "type": "Polygon", "coordinates": [ [ [ 0.000694442165123, 0.00025736534514 ], [ 0.000694443666853, 0.000257366531485 ], [ 0.000694445230261, 0.000257365450872 ], [ 0.000694445652054, 0.000257363767262 ], [ 0.000694444792528, 0.000257362642995 ], [ 0.000694442230489, 0.000257364095335 ], [ 0.000694442165123, 0.00025736534514 ] ] ] } },
{ "type": "Feature", "properties": { "parcel_id": "P018", "area_m2": 0.0, "buildings": 1, "bldg_area": 1.6389784285440958e-08, "land_use": "Low-density/open" }, "geometry": { "type": "Polygon", "coordinates": [ [ [ 0.000694442993224, 0.000257354084442 ], [ 0.000694444028075, 0.000257355065461 ], [ 0.000694444928643, 0.000257355327773 ], [ 0.000694446903844, 0.00025735490941 ], [ 0.000694446978612, 0.000257354172086 ], [ 0.000694445113166, 0.000257352177967 ], [ 0.000694444896176, 0.000257352081506 ], [ 0.00069444296465, 0.000257353599866 ], [ 0.000694442993224, 0.000257354084442 ] ] ] } },
{ "type": "Feature", "properties": { "parcel_id": "P019", "area_m2": 0.0, "buildings": 1, "bldg_area": 1.0278339297515684e-08, "land_use": "Low-density/open" }, "geometry": { "type": "Polygon", "coordinates": [ [ [ 0.000694444182828, 0.000257349761218 ], [ 0.000694445172731, 0.000257348651727 ], [ 0.000694445456093, 0.00025734804426 ], [ 0.000694445061094, 0.000257346289569 ], [ 0.00069444200182, 0.000257345120725 ], [ 0.000694440056427, 0.0002573459127 ], [ 0.000694440056427, 0.000257349465658 ], [ 0.000694444182828, 0.000257349761218 ] ] ] } },
{ "type": "Feature", "properties": { "parcel_id": "P020", "area_m2": 0.0, "buildings": 2, "bldg_area": 2.8006580543005855e-08, "land_use": "Low-density/open" }, "geometry": { "type": "Polygon", "coordinates": [ [ [ 0.000694444896176, 0.000257352081506 ], [ 0.000694445113166, 0.000257352177967 ], [ 0.000694447651312, 0.000257350814278 ], [ 0.000694445172731, 0.000257348651727 ], [ 0.000694444182828, 0.000257349761218 ], [ 0.000694444896176, 0.000257352081506 ] ] ] } },
{ "type": "Feature", "properties": { "parcel_id": "P021", "area_m2": 0.0, "buildings": 3, "bldg_area": 1.2424921214688294e-08, "land_use": "Low-density/open" }, "geometry": { "type": "Polygon", "coordinates": [ [ [ 0.000694443092114, 0.000257356917387 ], [ 0.000694443511311, 0.000257357554985 ], [ 0.000694445087034, 0.000257357414951 ], [ 0.00069444465168, 0.000257356720837 ], [ 0.000694443504161, 0.000257356617839 ], [ 0.000694443092114, 0.000257356917387 ] ] ] } },
{ "type": "Feature", "properties": { "parcel_id": "P022", "area_m2": 0.0, "buildings": 1, "bldg_area": 6.1114449877346921e-09, "land_use": "Low-density/open" }, "geometry": { "type": "Polygon", "coordinates": [ [ [ 0.000694443504161, 0.000257356617839 ], [ 0.00069444465168, 0.000257356720837 ], [ 0.000694444928643, 0.000257355327773 ], [ 0.000694444028075, 0.000257355065461 ], [ 0.000694443504161, 0.000257356617839 ] ] ] } },
{ "type": "Feature", "properties": { "parcel_id": "P023", "area_m2": 0.0, "buildings": 1, "bldg_area": 8.3842964295096479e-09, "land_use": "Low-density/open" }, "geometry": { "type": "Polygon", "coordinates": [ [ [ 0.000694447941252, 0.000257371256118 ], [ 0.00069444628445, 0.000257369803119 ], [ 0.000694444945742, 0.000257369847065 ], [ 0.000694444214557, 0.000257374588034 ], [ 0.0006944478868, 0.000257374588034 ], [ 0.000694447941252, 0.000257371256118 ] ] ] } },
{ "type": "Feature", "properties": { "parcel_id": "P024", "area_m2": 0.0, "buildings": 1, "bldg_area": 5.8589059386252925e-09, "land_use": "Low-density/open" }, "geometry": { "type": "Polygon", "coordinates": [ [ [ 0.000694444970944, 0.000257358978132 ], [ 0.000694445600516, 0.00025735780265 ], [ 0.000694445087034, 0.000257357414951 ], [ 0.000694443511311, 0.000257357554985 ], [ 0.000694443589133, 0.000257358642333 ], [ 0.000694444970944, 0.000257358978132 ] ] ] } },
{ "type": "Feature", "properties": { "parcel_id": "P025", "area_m2": 0.0, "buildings": 1, "bldg_area": 1.189458921174342e-08, "land_use": "Low-density/open" }, "geometry": { "type": "Polygon", "coordinates": [ [ [ 0.000694443666853, 0.000257366531485 ], [ 0.000694444146723, 0.000257369583202 ], [ 0.000694444945742, 0.000257369847065 ], [ 0.00069444628445, 0.000257369803119 ], [ 0.000694447413101, 0.000257367501836 ], [ 0.000694445230261, 0.000257365450872 ], [ 0.000694443666853, 0.000257366531485 ] ] ] } },
{ "type": "Feature", "properties": { "parcel_id": "P026", "area_m2": 0.0, "buildings": 1, "bldg_area": 1.0202577582861003e-08, "land_use": "Low-density/open" }, "geometry": { "type": "Polygon", "coordinates": [ [ [ 0.000694444792528, 0.000257362642995 ], [ 0.000694445652054, 0.000257363767262 ], [ 0.000694448415256, 0.000257364299456 ], [ 0.000694449121403, 0.0002573625771 ], [ 0.000694447055543, 0.000257360684053 ], [ 0.000694445450635, 0.000257361048274 ], [ 0.000694444860859, 0.000257361739197 ], [ 0.000694444792528, 0.000257362642995 ] ] ] } },
{ "type": "Feature", "properties": { "parcel_id": "P027", "area_m2": 0.0, "buildings": 1, "bldg_area": 3.6365623067408263e-09, "land_use": "Low-density/open" }, "geometry": { "type": "Polygon", "coordinates": [ [ [ 0.000694445087034, 0.000257357414951 ], [ 0.000694445600516, 0.00025735780265 ], [ 0.00069444776384, 0.000257356900073 ], [ 0.000694447740062, 0.000257356707792 ], [ 0.000694446903844, 0.00025735490941 ], [ 0.000694444928643, 0.000257355327773 ], [ 0.00069444465168, 0.000257356720837 ], [ 0.000694445087034, 0.000257357414951 ] ] ] } },
{ "type": "Feature", "properties": { "parcel_id": "P028", "area_m2": 0.0, "buildings": 1, "bldg_area": 6.2882223221894106e-09, "land_use": "Low-density/open" }, "geometry": { "type": "Polygon", "coordinates": [ [ [ 0.000694444970944, 0.000257358978132 ], [ 0.000694445450635, 0.000257361048274 ], [ 0.000694447055543, 0.000257360684053 ], [ 0.000694448727446, 0.000257358028653 ], [ 0.00069444776384, 0.000257356900073 ], [ 0.000694445600516, 0.00025735780265 ], [ 0.000694444970944, 0.000257358978132 ] ] ] } },
{ "type": "Feature", "properties": { "parcel_id": "P029", "area_m2": 0.0, "buildings": 3, "bldg_area": 4.4951950736289287e-08, "land_use": "Low-density/open" }, "geometry": { "type": "Polygon", "coordinates": [ [ [ 0.000694445818104, 0.00025734421056 ], [ 0.000694446371533, 0.000257343072613 ], [ 0.000694446237047, 0.000257342698752 ], [ 0.000694444964278, 0.000257342109556 ], [ 0.000694444006371, 0.000257342109556 ], [ 0.000694445818104, 0.00025734421056 ] ] ] } },
{ "type": "Feature", "properties": { "parcel_id": "P030", "area_m2": 0.0, "buildings": 1, "bldg_area": 9.7227533896732105e-09, "land_use": "Low-density/open" }, "geometry": { "type": "Polygon", "coordinates": [ [ [ 0.000694445061094, 0.000257346289569 ], [ 0.000694445589842, 0.00025734572899 ], [ 0.000694445946395, 0.000257344783982 ], [ 0.000694445818104, 0.00025734421056 ], [ 0.000694444006371, 0.000257342109556 ], [ 0.00069444323772, 0.000257342109556 ], [ 0.00069444200182, 0.000257345120725 ], [ 0.000694445061094, 0.000257346289569 ] ] ] } },
{ "type": "Feature", "properties": { "parcel_id": "P031", "area_m2": 0.0, "buildings": 3, "bldg_area": 7.3640386711854311e-08, "land_use": "Low-density/open" }, "geometry": { "type": "Polygon", "coordinates": [ [ [ 0.000694445456093, 0.00025734804426 ], [ 0.000694448803576, 0.000257348222734 ], [ 0.000694448950391, 0.000257347830072 ], [ 0.000694448316112, 0.000257345977889 ], [ 0.000694445589842, 0.00025734572899 ], [ 0.000694445061094, 0.000257346289569 ], [ 0.000694445456093, 0.00025734804426 ] ] ] } },
{ "type": "Feature", "properties": { "parcel_id": "P032", "area_m2": 0.0, "buildings": 1, "bldg_area": 2.2172928509316279e-08, "land_use": "Low-density/open" }, "geometry": { "type": "Polygon", "coordinates": [ [ [ 0.000694446978612, 0.000257354172086 ], [ 0.000694448195327, 0.000257353261706 ], [ 0.000694449138171, 0.000257350885177 ], [ 0.000694447651312, 0.000257350814278 ], [ 0.000694445113166, 0.000257352177967 ], [ 0.000694446978612, 0.000257354172086 ] ] ] } },
{ "type": "Feature", "properties": { "parcel_id": "P033", "area_m2": 0.0, "buildings": 2, "bldg_area": 4.4926696831391688e-08, "land_use": "Low-density/open" }, "geometry": { "type": "Polygon", "coordinates": [ [ [ 0.000694445818104, 0.00025734421056 ], [ 0.000694445946395, 0.000257344783982 ], [ 0.000694448361326, 0.000257343818283 ], [ 0.000694447282164, 0.000257342904037 ], [ 0.000694446371533, 0.000257343072613 ], [ 0.000694445818104, 0.00025734421056 ] ] ] } },
{ "type": "Feature", "properties": { "parcel_id": "P034", "area_m2": 0.0, "buildings": 1, "bldg_area": 1.12379876841962e-08, "land_use": "Low-density/open" }, "geometry": { "type": "Polygon", "coordinates": [ [ [ 0.000694451178458, 0.000257371142946 ], [ 0.000694449325823, 0.000257370926151 ], [ 0.000694447941252, 0.000257371256118 ], [ 0.0006944478868, 0.000257374588034 ], [ 0.000694451182911, 0.000257374588034 ], [ 0.000694451178458, 0.000257371142946 ] ] ] } },
{ "type": "Feature", "properties": { "parcel_id": "P035", "area_m2": 0.0, "buildings": 3, "bldg_area": 2.0556678595031368e-08, "land_use": "Low-density/open" }, "geometry": { "type": "Polygon", "coordinates": [ [ [ 0.000694446313609, 0.000257342550988 ], [ 0.000694446119913, 0.000257342109556 ], [ 0.000694444964278, 0.000257342109556 ], [ 0.000694446237047, 0.000257342698752 ], [ 0.000694446313609, 0.000257342550988 ] ] ] } },
{ "type": "Feature", "properties": { "parcel_id": "P036", "area_m2": 0.0, "buildings": 2, "bldg_area": 4.4926696831391688e-08, "land_use": "Low-density/open" }, "geometry": { "type": "Polygon", "coordinates": [ [ [ 0.000694446237047, 0.000257342698752 ], [ 0.000694446371533, 0.000257343072613 ], [ 0.000694447282164, 0.000257342904037 ], [ 0.000694447251962, 0.000257342650274 ], [ 0.000694447197294, 0.000257342392333 ], [ 0.000694447082438, 0.000257342109556 ], [ 0.000694446664984, 0.000257342109556 ], [ 0.000694446313609, 0.000257342550988 ], [ 0.000694446237047, 0.000257342698752 ] ] ] } },
{ "type": "Feature", "properties": { "parcel_id": "P037", "area_m2": 0.0, "buildings": 1, "bldg_area": 1.8839413061403817e-08, "land_use": "Low-density/open" }, "geometry": { "type": "Polygon", "coordinates": [ [ [ 0.000694445230261, 0.000257365450872 ], [ 0.000694447413101, 0.000257367501836 ], [ 0.000694447638819, 0.000257367311096 ], [ 0.000694448885596, 0.000257365501013 ], [ 0.000694448415256, 0.000257364299456 ], [ 0.000694445652054, 0.000257363767262 ], [ 0.000694445230261, 0.000257365450872 ] ] ] } },
{ "type": "Feature", "properties": { "parcel_id": "P038", "area_m2": 0.0, "buildings": 2, "bldg_area": 2.4294256521572232e-08, "land_use": "Low-density/open" }, "geometry": { "type": "Polygon", "coordinates": [ [ [ 0.00069444776384, 0.000257356900073 ], [ 0.000694448727446, 0.000257358028653 ], [ 0.000694449295074, 0.000257358171684 ], [ 0.000694450667076, 0.000257357921734 ], [ 0.00069445141298, 0.000257357267318 ], [ 0.000694451565939, 0.000257357102622 ], [ 0.000694451739037, 0.00025735649932 ], [ 0.000694450032886, 0.000257354881299 ], [ 0.000694447740062, 0.000257356707792 ], [ 0.00069444776384, 0.000257356900073 ] ] ] } },
{ "type": "Feature", "properties": { "parcel_id": "P039", "area_m2": 0.0, "buildings": 1, "bldg_area": 9.2681831012114932e-09, "land_use": "Low-density/open" }, "geometry": { "type": "Polygon", "coordinates": [ [ [ 0.000694445172731, 0.000257348651727 ], [ 0.000694447651312, 0.000257350814278 ], [ 0.000694449138171, 0.000257350885177 ], [ 0.000694449782831, 0.000257350405296 ], [ 0.000694448803576, 0.000257348222734 ], [ 0.000694445456093, 0.00025734804426 ], [ 0.000694445172731, 0.000257348651727 ] ] ] } },
{ "type": "Feature", "properties": { "parcel_id": "P040", "area_m2": 0.0, "buildings": 1, "bldg_area": 5.6063668895730676e-09, "land_use": "Low-density/open" }, "geometry": { "type": "Polygon", "coordinates": [ [ [ 0.000694446903844, 0.00025735490941 ], [ 0.000694447740062, 0.000257356707792 ], [ 0.000694450032886, 0.000257354881299 ], [ 0.000694450129193, 0.000257354139772 ], [ 0.000694448195327, 0.000257353261706 ], [ 0.000694446978612, 0.000257354172086 ], [ 0.000694446903844, 0.00025735490941 ] ] ] } },
{ "type": "Feature", "properties": { "parcel_id": "P041", "area_m2": 0.0, "buildings": 1, "bldg_area": 8.6368354785618727e-09, "land_use": "Low-density/open" }, "geometry": { "type": "Polygon", "coordinates": [ [ [ 0.000694447638819, 0.000257367311096 ], [ 0.000694450126038, 0.000257368478814 ], [ 0.000694451032814, 0.000257367871783 ], [ 0.000694451352498, 0.000257367271532 ], [ 0.000694449931554, 0.000257365743435 ], [ 0.000694448885596, 0.000257365501013 ], [ 0.000694447638819, 0.000257367311096 ] ] ] } },
{ "type": "Feature", "properties": { "parcel_id": "P042", "area_m2": 0.0, "buildings": 2, "bldg_area": 1.9319237254553493e-08, "land_use": "Low-density/open" }, "geometry": { "type": "Polygon", "coordinates": [ [ [ 0.00069444628445, 0.000257369803119 ], [ 0.000694447941252, 0.000257371256118 ], [ 0.000694449325823, 0.000257370926151 ], [ 0.000694450126038, 0.000257368478814 ], [ 0.000694447638819, 0.000257367311096 ], [ 0.000694447413101, 0.000257367501836 ], [ 0.00069444628445, 0.000257369803119 ] ] ] } },
{ "type": "Feature", "properties": { "parcel_id": "P043", "area_m2": 0.0, "buildings": 2, "bldg_area": 2.0430409070486197e-08, "land_use": "Low-density/open" }, "geometry": { "type": "Polygon", "coordinates": [ [ [ 0.000694447197294, 0.000257342392333 ], [ 0.00069444818992, 0.000257342109556 ], [ 0.000694447082438, 0.000257342109556 ], [ 0.000694447197294, 0.000257342392333 ] ] ] } },
{ "type": "Feature", "properties": { "parcel_id": "P044", "area_m2": 0.0, "buildings": 2, "bldg_area": 2.0379901260652882e-08, "land_use": "Low-density/open" }, "geometry": { "type": "Polygon", "coordinates": [ [ [ 0.000694447251962, 0.000257342650274 ], [ 0.000694448200988, 0.000257342109556 ], [ 0.00069444818992, 0.000257342109556 ], [ 0.000694447197294, 0.000257342392333 ], [ 0.000694447251962, 0.000257342650274 ] ] ] } },
{ "type": "Feature", "properties": { "parcel_id": "P045", "area_m2": 0.0, "buildings": 1, "bldg_area": 7.1468550889745985e-09, "land_use": "Low-density/open" }, "geometry": { "type": "Polygon", "coordinates": [ [ [ 0.000694447055543, 0.000257360684053 ], [ 0.000694449121403, 0.0002573625771 ], [ 0.000694450010202, 0.00025736211506 ], [ 0.000694450186303, 0.000257361603543 ], [ 0.000694449295074, 0.000257358171684 ], [ 0.000694448727446, 0.000257358028653 ], [ 0.000694447055543, 0.000257360684053 ] ] ] } },
{ "type": "Feature", "properties": { "parcel_id": "P046", "area_m2": 0.0, "buildings": 1, "bldg_area": 9.0661518618782337e-09, "land_use": "Low-density/open" }, "geometry": { "type": "Polygon", "coordinates": [ [ [ 0.000694448195327, 0.000257353261706 ], [ 0.000694450129193, 0.000257354139772 ], [ 0.000694450914332, 0.000257353643572 ], [ 0.000694451814696, 0.000257351766325 ], [ 0.000694450763867, 0.000257350603215 ], [ 0.000694449782831, 0.000257350405296 ], [ 0.000694449138171, 0.000257350885177 ], [ 0.000694448195327, 0.000257353261706 ] ] ] } },
{ "type": "Feature", "properties": { "parcel_id": "P047", "area_m2": 0.0, "buildings": 2, "bldg_area": 7.1013980601379559e-08, "land_use": "Low-density/open" }, "geometry": { "type": "Polygon", "coordinates": [ [ [ 0.000694445589842, 0.00025734572899 ], [ 0.000694448316112, 0.000257345977889 ], [ 0.000694449109775, 0.000257344248476 ], [ 0.00069444863278, 0.000257343837091 ], [ 0.000694448361326, 0.000257343818283 ], [ 0.000694445946395, 0.000257344783982 ], [ 0.000694445589842, 0.00025734572899 ] ] ] } },
{ "type": "Feature", "properties": { "parcel_id": "P048", "area_m2": 0.0, "buildings": 3, "bldg_area": 4.4951950736289287e-08, "land_use": "Low-density/open" }, "geometry": { "type": "Polygon", "coordinates": [ [ [ 0.00069444863278, 0.000257343837091 ], [ 0.000694448770435, 0.000257342109556 ], [ 0.000694448200988, 0.000257342109556 ], [ 0.000694447251962, 0.000257342650274 ], [ 0.000694447282164, 0.000257342904037 ], [ 0.000694448361326, 0.000257343818283 ], [ 0.00069444863278, 0.000257343837091 ] ] ] } },
{ "type": "Feature", "properties": { "parcel_id": "P049", "area_m2": 0.0, "buildings": 1, "bldg_area": 1.631402257053852e-08, "land_use": "Low-density/open" }, "geometry": { "type": "Polygon", "coordinates": [ [ [ 0.00069444863278, 0.000257343837091 ], [ 0.000694449109775, 0.000257344248476 ], [ 0.000694450383447, 0.000257344348266 ], [ 0.000694450613948, 0.000257342109556 ], [ 0.000694448770435, 0.000257342109556 ], [ 0.00069444863278, 0.000257343837091 ] ] ] } },
{ "type": "Feature", "properties": { "parcel_id": "P050", "area_m2": 0.0, "buildings": 1, "bldg_area": 2.4521541665574391e-08, "land_use": "Low-density/open" }, "geometry": { "type": "Polygon", "coordinates": [ [ [ 0.000694448803576, 0.000257348222734 ], [ 0.000694449782831, 0.000257350405296 ], [ 0.000694450763867, 0.000257350603215 ], [ 0.000694451888613, 0.000257349191287 ], [ 0.000694452321384, 0.000257347339736 ], [ 0.000694451622744, 0.000257345967033 ], [ 0.000694448950391, 0.000257347830072 ], [ 0.000694448803576, 0.000257348222734 ] ] ] } },
{ "type": "Feature", "properties": { "parcel_id": "P051", "area_m2": 0.0, "buildings": 1, "bldg_area": 8.7631050031261017e-09, "land_use": "Low-density/open" }, "geometry": { "type": "Polygon", "coordinates": [ [ [ 0.000694448415256, 0.000257364299456 ], [ 0.000694448885596, 0.000257365501013 ], [ 0.000694449931554, 0.000257365743435 ], [ 0.000694452350544, 0.000257363979362 ], [ 0.00069445229767, 0.000257363878148 ], [ 0.000694452200154, 0.000257363775867 ], [ 0.00069445122263, 0.000257362994208 ], [ 0.000694450278259, 0.000257362282517 ], [ 0.000694450025265, 0.000257362123255 ], [ 0.000694450010202, 0.00025736211506 ], [ 0.000694449121403, 0.0002573625771 ], [ 0.000694448415256, 0.000257364299456 ] ] ] } },
{ "type": "Feature", "properties": { "parcel_id": "P052", "area_m2": 0.0, "buildings": 2, "bldg_area": 7.1013980601379559e-08, "land_use": "Low-density/open" }, "geometry": { "type": "Polygon", "coordinates": [ [ [ 0.000694448950391, 0.000257347830072 ], [ 0.000694451622744, 0.000257345967033 ], [ 0.000694451728898, 0.00025734514251 ], [ 0.000694450383447, 0.000257344348266 ], [ 0.000694449109775, 0.000257344248476 ], [ 0.000694448316112, 0.000257345977889 ], [ 0.000694448950391, 0.000257347830072 ] ] ] } },
{ "type": "Feature", "properties": { "parcel_id": "P053", "area_m2": 0.0, "buildings": 1, "bldg_area": 8.7883589080618173e-09, "land_use": "Low-density/open" }, "geometry": { "type": "Polygon", "coordinates": [ [ [ 0.000694450383447, 0.000257344348266 ], [ 0.000694451728898, 0.00025734514251 ], [ 0.000694454408731, 0.000257343494526 ], [ 0.000694454531513, 0.000257343342558 ], [ 0.000694455043443, 0.000257342109556 ], [ 0.000694450613948, 0.000257342109556 ], [ 0.000694450383447, 0.000257344348266 ] ] ] } },
{ "type": "Feature", "properties": { "parcel_id": "P054", "area_m2": 0.0, "buildings": 1, "bldg_area": 2.0884979358986031e-08, "land_use": "Low-density/open" }, "geometry": { "type": "Polygon", "coordinates": [ [ [ 0.000694450129193, 0.000257354139772 ], [ 0.000694450032886, 0.000257354881299 ], [ 0.000694451739037, 0.00025735649932 ], [ 0.000694451934171, 0.000257356245393 ], [ 0.000694452231718, 0.000257355513036 ], [ 0.000694450914332, 0.000257353643572 ], [ 0.000694450129193, 0.000257354139772 ] ] ] } },
{ "type": "Feature", "properties": { "parcel_id": "P055", "area_m2": 0.0, "buildings": 1, "bldg_area": 2.8789451594698023e-09, "land_use": "Low-density/open" }, "geometry": { "type": "Polygon", "coordinates": [ [ [ 0.000694449295074, 0.000257358171684 ], [ 0.000694450186303, 0.000257361603543 ], [ 0.000694450413853, 0.000257361457087 ], [ 0.000694451350997, 0.000257360683544 ], [ 0.000694451606612, 0.000257360454167 ], [ 0.000694452106035, 0.000257359919903 ], [ 0.000694450667076, 0.000257357921734 ], [ 0.000694449295074, 0.000257358171684 ] ] ] } },
{ "type": "Feature", "properties": { "parcel_id": "P056", "area_m2": 0.0, "buildings": 1, "bldg_area": 2.3511385469346434e-08, "land_use": "Low-density/open" }, "geometry": { "type": "Polygon", "coordinates": [ [ [ 0.000694457875574, 0.000257374330296 ], [ 0.000694457884569, 0.000257373995539 ], [ 0.000694457828375, 0.000257373121322 ], [ 0.000694457782002, 0.000257372794048 ], [ 0.000694455489573, 0.000257371543772 ], [ 0.000694454263393, 0.000257372645014 ], [ 0.000694453862796, 0.000257374588034 ], [ 0.000694457847318, 0.000257374588034 ], [ 0.000694457875574, 0.000257374330296 ] ] ] } },
{ "type": "Feature", "properties": { "parcel_id": "P057", "area_m2": 0.0, "buildings": 1, "bldg_area": 9.6722455796302549e-09, "land_use": "Low-density/open" }, "geometry": { "type": "Polygon", "coordinates": [ [ [ 0.000694449325823, 0.000257370926151 ], [ 0.000694451178458, 0.000257371142946 ], [ 0.000694451339929, 0.000257371084475 ], [ 0.000694451694955, 0.000257370469723 ], [ 0.000694451032814, 0.000257367871783 ], [ 0.000694450126038, 0.000257368478814 ], [ 0.000694449325823, 0.000257370926151 ] ] ] } },
{ "type": "Feature", "properties": { "parcel_id": "P058", "area_m2": 0.0, "buildings": 1, "bldg_area": 5.2275583161471962e-09, "land_use": "Low-density/open" }, "geometry": { "type": "Polygon", "coordinates": [ [ [ 0.000694451182911, 0.000257374588034 ], [ 0.000694453862796, 0.000257374588034 ], [ 0.000694454263393, 0.000257372645014 ], [ 0.000694451339929, 0.000257371084475 ], [ 0.000694451178458, 0.000257371142946 ], [ 0.000694451182911, 0.000257374588034 ] ] ] } },
{ "type": "Feature", "properties": { "parcel_id": "P059", "area_m2": 0.0, "buildings": 2, "bldg_area": 6.9700777546723459e-09, "land_use": "Low-density/open" }, "geometry": { "type": "Polygon", "coordinates": [ [ [ 0.000694450010202, 0.00025736211506 ], [ 0.000694450025265, 0.000257362123255 ], [ 0.00069445199282, 0.000257361715611 ], [ 0.000694452058759, 0.000257361488154 ], [ 0.000694452032323, 0.000257361458031 ], [ 0.000694452031483, 0.000257361457297 ], [ 0.000694452029816, 0.000257361457087 ], [ 0.000694450413853, 0.000257361457087 ], [ 0.000694450186303, 0.000257361603543 ], [ 0.000694450010202, 0.00025736211506 ] ] ] } },
{ "type": "Feature", "properties": { "parcel_id": "P060", "area_m2": 0.0, "buildings": 1, "bldg_area": 9.5207221503780675e-09, "land_use": "Low-density/open" }, "geometry": { "type": "Polygon", "coordinates": [ [ [ 0.000694449931554, 0.000257365743435 ], [ 0.000694451352498, 0.000257367271532 ], [ 0.000694452197088, 0.000257367256801 ], [ 0.000694453423879, 0.000257364869747 ], [ 0.000694453287408, 0.000257364401501 ], [ 0.000694452350544, 0.000257363979362 ], [ 0.000694449931554, 0.000257365743435 ] ] ] } },
{ "type": "Feature", "properties": { "parcel_id": "P061", "area_m2": 0.0, "buildings": 2, "bldg_area": 6.9700777546532877e-09, "land_use": "Low-density/open" }, "geometry": { "type": "Polygon", "coordinates": [ [ [ 0.000694450413853, 0.000257361457087 ], [ 0.000694452029816, 0.000257361457087 ], [ 0.000694451350997, 0.000257360683544 ], [ 0.000694450413853, 0.000257361457087 ] ] ] } },
{ "type": "Feature", "properties": { "parcel_id": "P062", "area_m2": 0.0, "buildings": 2, "bldg_area": 2.6693377487835183e-08, "land_use": "Low-density/open" }, "geometry": { "type": "Polygon", "coordinates": [ [ [ 0.000694452231718, 0.000257355513036 ], [ 0.000694453858597, 0.000257354138337 ], [ 0.000694453749351, 0.000257353361585 ], [ 0.000694452474025, 0.000257351962892 ], [ 0.000694451814696, 0.000257351766325 ], [ 0.000694450914332, 0.000257353643572 ], [ 0.000694452231718, 0.000257355513036 ] ] ] } },
{ "type": "Feature", "properties": { "parcel_id": "P063", "area_m2": 0.0, "buildings": 4, "bldg_area": 7.2226168037245708e-09, "land_use": "Low-density/open" }, "geometry": { "type": "Polygon", "coordinates": [ [ [ 0.000694451350997, 0.000257360683544 ], [ 0.000694452029816, 0.000257361457087 ], [ 0.000694452031483, 0.000257361457297 ], [ 0.000694452031483, 0.000257361385229 ], [ 0.000694451606612, 0.000257360454167 ], [ 0.000694451350997, 0.000257360683544 ] ] ] } },
{ "type": "Feature", "properties": { "parcel_id": "P064", "area_m2": 0.0, "buildings": 2, "bldg_area": 8.8641206227736731e-09, "land_use": "Low-density/open" }, "geometry": { "type": "Polygon", "coordinates": [ [ [ 0.000694450667076, 0.000257357921734 ], [ 0.000694452106035, 0.000257359919903 ], [ 0.000694452560002, 0.000257360041772 ], [ 0.000694452855819, 0.000257360100568 ], [ 0.000694453063344, 0.000257360126708 ], [ 0.000694453005687, 0.000257358836031 ], [ 0.00069445141298, 0.000257357267318 ], [ 0.000694450667076, 0.000257357921734 ] ] ] } },
{ "type": "Feature", "properties": { "parcel_id": "P065", "area_m2": 0.0, "buildings": 1, "bldg_area": 8.5358198589333595e-09, "land_use": "Low-density/open" }, "geometry": { "type": "Polygon", "coordinates": [ [ [ 0.00069446357065, 0.000257343461753 ], [ 0.000694467071181, 0.000257343985507 ], [ 0.000694468745845, 0.000257343797382 ], [ 0.00069446910942, 0.000257343445619 ], [ 0.000694469130425, 0.000257342109556 ], [ 0.000694462225631, 0.000257342109556 ], [ 0.00069446357065, 0.000257343461753 ] ] ] } },
{ "type": "Feature", "properties": { "parcel_id": "P066", "area_m2": 0.0, "buildings": 1, "bldg_area": 1.0833925205453448e-08, "land_use": "Low-density/open" }, "geometry": { "type": "Polygon", "coordinates": [ [ [ 0.000694451622744, 0.000257345967033 ], [ 0.000694452321384, 0.000257347339736 ], [ 0.00069445462922, 0.00025734773988 ], [ 0.000694454826211, 0.00025734723369 ], [ 0.000694454408731, 0.000257343494526 ], [ 0.000694451728898, 0.00025734514251 ], [ 0.000694451622744, 0.000257345967033 ] ] ] } },
{ "type": "Feature", "properties": { "parcel_id": "P067", "area_m2": 0.0, "buildings": 3, "bldg_area": 8.9398823374664707e-09, "land_use": "Low-density/open" }, "geometry": { "type": "Polygon", "coordinates": [ [ [ 0.00069445141298, 0.000257357267318 ], [ 0.000694453005687, 0.000257358836031 ], [ 0.000694453308514, 0.000257358371083 ], [ 0.000694453308501, 0.000257357682147 ], [ 0.000694451565939, 0.000257357102622 ], [ 0.00069445141298, 0.000257357267318 ] ] ] } },
{ "type": "Feature", "properties": { "parcel_id": "P068", "area_m2": 0.0, "buildings": 2, "bldg_area": 7.1721089939103142e-09, "land_use": "Low-density/open" }, "geometry": { "type": "Polygon", "coordinates": [ [ [ 0.000694451606612, 0.000257360454167 ], [ 0.000694452031483, 0.000257361385229 ], [ 0.000694452560002, 0.000257360041772 ], [ 0.000694452106035, 0.000257359919903 ], [ 0.000694451606612, 0.000257360454167 ] ] ] } },
{ "type": "Feature", "properties": { "parcel_id": "P069", "area_m2": 0.0, "buildings": 1, "bldg_area": 1.3510839125723399e-08, "land_use": "Low-density/open" }, "geometry": { "type": "Polygon", "coordinates": [ [ [ 0.000694451032814, 0.000257367871783 ], [ 0.000694451694955, 0.000257370469723 ], [ 0.000694453444235, 0.000257369128189 ], [ 0.000694452369652, 0.000257367390473 ], [ 0.000694452197088, 0.000257367256801 ], [ 0.000694451352498, 0.000257367271532 ], [ 0.000694451032814, 0.000257367871783 ] ] ] } },
{ "type": "Feature", "properties": { "parcel_id": "P070", "area_m2": 0.0, "buildings": 3, "bldg_area": 6.9953316595699451e-09, "land_use": "Low-density/open" }, "geometry": { "type": "Polygon", "coordinates": [ [ [ 0.000694452200154, 0.000257363775867 ], [ 0.000694452200154, 0.000257362000159 ], [ 0.000694452122968, 0.00025736196825 ], [ 0.00069445122263, 0.000257362994208 ], [ 0.000694452200154, 0.000257363775867 ] ] ] } },
{ "type": "Feature", "properties": { "parcel_id": "P071", "area_m2": 0.0, "buildings": 2, "bldg_area": 6.9953316595699451e-09, "land_use": "Low-density/open" }, "geometry": { "type": "Polygon", "coordinates": [ [ [ 0.000694450278259, 0.000257362282517 ], [ 0.000694452110768, 0.00025736196126 ], [ 0.00069445199282, 0.000257361715611 ], [ 0.000694450025265, 0.000257362123255 ], [ 0.000694450278259, 0.000257362282517 ] ] ] } },
{ "type": "Feature", "properties": { "parcel_id": "P072", "area_m2": 0.0, "buildings": 1, "bldg_area": 6.9448238497556885e-09, "land_use": "Low-density/open" }, "geometry": { "type": "Polygon", "coordinates": [ [ [ 0.00069445199282, 0.000257361715611 ], [ 0.000694452110768, 0.00025736196126 ], [ 0.000694452122968, 0.00025736196825 ], [ 0.000694452200154, 0.000257362000159 ], [ 0.000694452338712, 0.000257361924929 ], [ 0.000694452427666, 0.00025736160169 ], [ 0.000694452214874, 0.000257361507355 ], [ 0.000694452058759, 0.000257361488154 ], [ 0.00069445199282, 0.000257361715611 ] ] ] } },
{ "type": "Feature", "properties": { "parcel_id": "P073", "area_m2": 0.0, "buildings": 2, "bldg_area": 6.9700777546532877e-09, "land_use": "Low-density/open" }, "geometry": { "type": "Polygon", "coordinates": [ [ [ 0.000694450278259, 0.000257362282517 ], [ 0.00069445122263, 0.000257362994208 ], [ 0.000694452122968, 0.00025736196825 ], [ 0.000694452110768, 0.00025736196126 ], [ 0.000694450278259, 0.000257362282517 ] ] ] } },
{ "type": "Feature", "properties": { "parcel_id": "P074", "area_m2": 0.0, "buildings": 4, "bldg_area": 7.2226168037245708e-09, "land_use": "Low-density/open" }, "geometry": { "type": "Polygon", "coordinates": [ [ [ 0.000694452031483, 0.000257361457297 ], [ 0.000694452032323, 0.000257361458031 ], [ 0.000694452365454, 0.000257361078431 ], [ 0.000694452855819, 0.000257360100568 ], [ 0.000694452560002, 0.000257360041772 ], [ 0.000694452031483, 0.000257361385229 ], [ 0.000694452031483, 0.000257361457297 ] ] ] } },
{ "type": "Feature", "properties": { "parcel_id": "P075", "area_m2": 0.0, "buildings": 4, "bldg_area": 1.5859452282400793e-08, "land_use": "Low-density/open" }, "geometry": { "type": "Polygon", "coordinates": [ [ [ 0.00069445229767, 0.000257363878148 ], [ 0.000694452907064, 0.000257362209112 ], [ 0.000694452338712, 0.000257361924929 ], [ 0.000694452200154, 0.000257362000159 ], [ 0.000694452200154, 0.000257363775867 ], [ 0.00069445229767, 0.000257363878148 ] ] ] } },
{ "type": "Feature", "properties": { "parcel_id": "P076", "area_m2": 0.0, "buildings": 1, "bldg_area": 5.6568746994254407e-09, "land_use": "Low-density/open" }, "geometry": { "type": "Polygon", "coordinates": [ [ [ 0.000694451814696, 0.000257351766325 ], [ 0.000694452474025, 0.000257351962892 ], [ 0.000694455541111, 0.00025734965861 ], [ 0.000694455244708, 0.000257349315948 ], [ 0.000694451888613, 0.000257349191287 ], [ 0.000694450763867, 0.000257350603215 ], [ 0.000694451814696, 0.000257351766325 ] ] ] } },
{ "type": "Feature", "properties": { "parcel_id": "P077", "area_m2": 0.0, "buildings": 1, "bldg_area": 3.8385935461122023e-09, "land_use": "Low-density/open" }, "geometry": { "type": "Polygon", "coordinates": [ [ [ 0.000694451565939, 0.000257357102622 ], [ 0.000694453308501, 0.000257357682147 ], [ 0.000694454277082, 0.000257357588394 ], [ 0.000694454046479, 0.000257356408775 ], [ 0.000694451934171, 0.000257356245393 ], [ 0.000694451739037, 0.00025735649932 ], [ 0.000694451565939, 0.000257357102622 ] ] ] } },
{ "type": "Feature", "properties": { "parcel_id": "P078", "area_m2": 0.0, "buildings": 1, "bldg_area": 6.717538705620121e-09, "land_use": "Low-density/open" }, "geometry": { "type": "Polygon", "coordinates": [ [ [ 0.000694451339929, 0.000257371084475 ], [ 0.000694454263393, 0.000257372645014 ], [ 0.000694455489573, 0.000257371543772 ], [ 0.00069445558144, 0.000257369520711 ], [ 0.000694453444235, 0.000257369128189 ], [ 0.000694451694955, 0.000257370469723 ], [ 0.000694451339929, 0.000257371084475 ] ] ] } },
{ "type": "Feature", "properties": { "parcel_id": "P079", "area_m2": 0.0, "buildings": 1, "bldg_area": 7.5256636626672853e-09, "land_use": "Low-density/open" }, "geometry": { "type": "Polygon", "coordinates": [ [ [ 0.000694452350544, 0.000257363979362 ], [ 0.000694453287408, 0.000257364401501 ], [ 0.000694454965634, 0.000257362991784 ], [ 0.000694454576728, 0.000257360799042 ], [ 0.000694454249246, 0.000257360757654 ], [ 0.000694452907064, 0.000257362209112 ], [ 0.00069445229767, 0.000257363878148 ], [ 0.000694452350544, 0.000257363979362 ] ] ] } },
{ "type": "Feature", "properties": { "parcel_id": "P080", "area_m2": 0.0, "buildings": 3, "bldg_area": 8.3590425246501651e-09, "land_use": "Low-density/open" }, "geometry": { "type": "Polygon", "coordinates": [ [ [ 0.000694452427666, 0.00025736160169 ], [ 0.000694454220074, 0.000257360746189 ], [ 0.00069445327868, 0.000257360209822 ], [ 0.000694453063344, 0.000257360126708 ], [ 0.000694452855819, 0.000257360100568 ], [ 0.000694452365454, 0.000257361078431 ], [ 0.000694452214874, 0.000257361507355 ], [ 0.000694452427666, 0.00025736160169 ] ] ] } },
{ "type": "Feature", "properties": { "parcel_id": "P081", "area_m2": 0.0, "buildings": 2, "bldg_area": 6.9700777546532877e-09, "land_use": "Low-density/open" }, "geometry": { "type": "Polygon", "coordinates": [ [ [ 0.000694452058759, 0.000257361488154 ], [ 0.000694452214874, 0.000257361507355 ], [ 0.000694452365454, 0.000257361078431 ], [ 0.000694452032323, 0.000257361458031 ], [ 0.000694452058759, 0.000257361488154 ] ] ] } },
{ "type": "Feature", "properties": { "parcel_id": "P082", "area_m2": 0.0, "buildings": 2, "bldg_area": 8.3085347148168503e-09, "land_use": "Low-density/open" }, "geometry": { "type": "Polygon", "coordinates": [ [ [ 0.000694452427666, 0.00025736160169 ], [ 0.000694452338712, 0.000257361924929 ], [ 0.000694452907064, 0.000257362209112 ], [ 0.000694454249246, 0.000257360757654 ], [ 0.000694454220074, 0.000257360746189 ], [ 0.000694452427666, 0.00025736160169 ] ] ] } },
{ "type": "Feature", "properties": { "parcel_id": "P083", "area_m2": 0.0, "buildings": 1, "bldg_area": 1.4647264846648993e-08, "land_use": "Low-density/open" }, "geometry": { "type": "Polygon", "coordinates": [ [ [ 0.000694452369652, 0.000257367390473 ], [ 0.000694455468492, 0.000257366800582 ], [ 0.000694455498784, 0.000257366510855 ], [ 0.000694453423879, 0.000257364869747 ], [ 0.000694452197088, 0.000257367256801 ], [ 0.000694452369652, 0.000257367390473 ] ] ] } },
{ "type": "Feature", "properties": { "parcel_id": "P084", "area_m2": 0.0, "buildings": 2, "bldg_area": 5.555859079758811e-09, "land_use": "Low-density/open" }, "geometry": { "type": "Polygon", "coordinates": [ [ [ 0.000694454249246, 0.000257360757654 ], [ 0.000694454576728, 0.000257360799042 ], [ 0.000694455732338, 0.000257359840181 ], [ 0.000694455588285, 0.000257359248108 ], [ 0.000694454904351, 0.000257358328035 ], [ 0.000694453569548, 0.000257358708294 ], [ 0.00069445327868, 0.000257360209822 ], [ 0.000694454220074, 0.000257360746189 ], [ 0.000694454249246, 0.000257360757654 ] ] ] } },
{ "type": "Feature", "properties": { "parcel_id": "P085", "area_m2": 0.0, "buildings": 2, "bldg_area": 8.8641206227736731e-09, "land_use": "Low-density/open" }, "geometry": { "type": "Polygon", "coordinates": [ [ [ 0.000694453063344, 0.000257360126708 ], [ 0.00069445327868, 0.000257360209822 ], [ 0.000694453569548, 0.000257358708294 ], [ 0.000694453308514, 0.000257358371083 ], [ 0.000694453005687, 0.000257358836031 ], [ 0.000694453063344, 0.000257360126708 ] ] ] } },
{ "type": "Feature", "properties": { "parcel_id": "P086", "area_m2": 0.0, "buildings": 1, "bldg_area": 4.16689430980005e-09, "land_use": "Low-density/open" }, "geometry": { "type": "Polygon", "coordinates": [ [ [ 0.000694452231718, 0.000257355513036 ], [ 0.000694451934171, 0.000257356245393 ], [ 0.000694454046479, 0.000257356408775 ], [ 0.000694454859111, 0.000257355013833 ], [ 0.000694453858597, 0.000257354138337 ], [ 0.000694452231718, 0.000257355513036 ] ] ] } },
{ "type": "Feature", "properties": { "parcel_id": "P087", "area_m2": 0.0, "buildings": 1, "bldg_area": 1.5909960092348457e-09, "land_use": "Low-density/open" }, "geometry": { "type": "Polygon", "coordinates": [ [ [ 0.000694451888613, 0.000257349191287 ], [ 0.000694455244708, 0.000257349315948 ], [ 0.00069445462922, 0.00025734773988 ], [ 0.000694452321384, 0.000257347339736 ], [ 0.000694451888613, 0.000257349191287 ] ] ] } },
{ "type": "Feature", "properties": { "parcel_id": "P088", "area_m2": 0.0, "buildings": 2, "bldg_area": 5.5558590797397528e-09, "land_use": "Low-density/open" }, "geometry": { "type": "Polygon", "coordinates": [ [ [ 0.000694453569548, 0.000257358708294 ], [ 0.000694454904351, 0.000257358328035 ], [ 0.000694454595404, 0.000257357759258 ], [ 0.000694454277082, 0.000257357588394 ], [ 0.000694453308501, 0.000257357682147 ], [ 0.000694453308514, 0.000257358371083 ], [ 0.000694453569548, 0.000257358708294 ] ] ] } },
{ "type": "Feature", "properties": { "parcel_id": "P089", "area_m2": 0.0, "buildings": 1, "bldg_area": 7.3741402332626319e-09, "land_use": "Low-density/open" }, "geometry": { "type": "Polygon", "coordinates": [ [ [ 0.000694455468492, 0.000257366800582 ], [ 0.000694452369652, 0.000257367390473 ], [ 0.000694453444235, 0.000257369128189 ], [ 0.00069445558144, 0.000257369520711 ], [ 0.000694455926556, 0.000257369106762 ], [ 0.000694455468492, 0.000257366800582 ] ] ] } },
{ "type": "Feature", "properties": { "parcel_id": "P090", "area_m2": 0.0, "buildings": 1, "bldg_area": 4.1921482147738822e-09, "land_use": "Low-density/open" }, "geometry": { "type": "Polygon", "coordinates": [ [ [ 0.000694455926556, 0.000257369106762 ], [ 0.000694458943528, 0.000257368746881 ], [ 0.00069445901434, 0.000257366267456 ], [ 0.000694458598031, 0.000257365584647 ], [ 0.000694456707547, 0.000257365385868 ], [ 0.000694455498784, 0.000257366510855 ], [ 0.000694455468492, 0.000257366800582 ], [ 0.000694455926556, 0.000257369106762 ] ] ] } },
{ "type": "Feature", "properties": { "parcel_id": "P091", "area_m2": 0.0, "buildings": 1, "bldg_area": 7.0710933741483932e-09, "land_use": "Low-density/open" }, "geometry": { "type": "Polygon", "coordinates": [ [ [ 0.000694454277082, 0.000257357588394 ], [ 0.000694454595404, 0.000257357759258 ], [ 0.000694456394988, 0.000257355477965 ], [ 0.000694454859111, 0.000257355013833 ], [ 0.000694454046479, 0.000257356408775 ], [ 0.000694454277082, 0.000257357588394 ] ] ] } },
{ "type": "Feature", "properties": { "parcel_id": "P092", "area_m2": 0.0, "buildings": 1, "bldg_area": 4.0406247852929958e-09, "land_use": "Low-density/open" }, "geometry": { "type": "Polygon", "coordinates": [ [ [ 0.000694453749351, 0.000257353361585 ], [ 0.000694457713315, 0.000257351397668 ], [ 0.000694456881625, 0.00025735012064 ], [ 0.000694455541111, 0.00025734965861 ], [ 0.000694452474025, 0.000257351962892 ], [ 0.000694453749351, 0.000257353361585 ] ] ] } },
{ "type": "Feature", "properties": { "parcel_id": "P093", "area_m2": 0.0, "buildings": 1, "bldg_area": 2.6592361868225728e-08, "land_use": "Low-density/open" }, "geometry": { "type": "Polygon", "coordinates": [ [ [ 0.000694455541111, 0.00025734965861 ], [ 0.000694456881625, 0.00025735012064 ], [ 0.000694457810907, 0.000257347820304 ], [ 0.000694457484468, 0.000257346695922 ], [ 0.000694457121172, 0.000257346531877 ], [ 0.000694454826211, 0.00025734723369 ], [ 0.00069445462922, 0.00025734773988 ], [ 0.000694455244708, 0.000257349315948 ], [ 0.000694455541111, 0.00025734965861 ] ] ] } },
{ "type": "Feature", "properties": { "parcel_id": "P094", "area_m2": 0.0, "buildings": 1, "bldg_area": 1.0025800248463459e-08, "land_use": "Low-density/open" }, "geometry": { "type": "Polygon", "coordinates": [ [ [ 0.000694453858597, 0.000257354138337 ], [ 0.000694454859111, 0.000257355013833 ], [ 0.000694456394988, 0.000257355477965 ], [ 0.00069445752252, 0.000257355440548 ], [ 0.000694457879404, 0.000257355325667 ], [ 0.000694458561861, 0.000257354556416 ], [ 0.000694457832268, 0.000257351487062 ], [ 0.000694457713315, 0.000257351397668 ], [ 0.000694453749351, 0.000257353361585 ], [ 0.000694453858597, 0.000257354138337 ] ] ] } },
{ "type": "Feature", "properties": { "parcel_id": "P095", "area_m2": 0.0, "buildings": 1, "bldg_area": 1.2500682929304859e-08, "land_use": "Low-density/open" }, "geometry": { "type": "Polygon", "coordinates": [ [ [ 0.000694453423879, 0.000257364869747 ], [ 0.000694455498784, 0.000257366510855 ], [ 0.000694456707547, 0.000257365385868 ], [ 0.000694456106893, 0.000257363486118 ], [ 0.000694454965634, 0.000257362991784 ], [ 0.000694453287408, 0.000257364401501 ], [ 0.000694453423879, 0.000257364869747 ] ] ] } },
{ "type": "Feature", "properties": { "parcel_id": "P096", "area_m2": 0.0, "buildings": 3, "bldg_area": 7.3741402331463766e-08, "land_use": "Low-density/open" }, "geometry": { "type": "Polygon", "coordinates": [ [ [ 0.000694454408731, 0.000257343494526 ], [ 0.000694454826211, 0.00025734723369 ], [ 0.000694457121172, 0.000257346531877 ], [ 0.000694454531513, 0.000257343342558 ], [ 0.000694454408731, 0.000257343494526 ] ] ] } },
{ "type": "Feature", "properties": { "parcel_id": "P097", "area_m2": 0.0, "buildings": 1, "bldg_area": 9.8742768188682232e-09, "land_use": "Low-density/open" }, "geometry": { "type": "Polygon", "coordinates": [ [ [ 0.000694454904351, 0.000257358328035 ], [ 0.000694455588285, 0.000257359248108 ], [ 0.00069445752252, 0.000257355440548 ], [ 0.000694456394988, 0.000257355477965 ], [ 0.000694454595404, 0.000257357759258 ], [ 0.000694454904351, 0.000257358328035 ] ] ] } },
{ "type": "Feature", "properties": { "parcel_id": "P098", "area_m2": 0.0, "buildings": 1, "bldg_area": 1.5985721806850672e-08, "land_use": "Low-density/open" }, "geometry": { "type": "Polygon", "coordinates": [ [ [ 0.000694454576728, 0.000257360799042 ], [ 0.000694454965634, 0.000257362991784 ], [ 0.000694456106893, 0.000257363486118 ], [ 0.000694458496571, 0.000257362012758 ], [ 0.000694458351729, 0.000257361579257 ], [ 0.000694456097059, 0.000257359901648 ], [ 0.000694455732338, 0.000257359840181 ], [ 0.000694454576728, 0.000257360799042 ] ] ] } },
{ "type": "Feature", "properties": { "parcel_id": "P099", "area_m2": 0.0, "buildings": 1, "bldg_area": 9.6974994847374948e-09, "land_use": "Low-density/open" }, "geometry": { "type": "Polygon", "coordinates": [ [ [ 0.00069445558144, 0.000257369520711 ], [ 0.000694455489573, 0.000257371543772 ], [ 0.000694457782002, 0.000257372794048 ], [ 0.000694458647864, 0.000257372112902 ], [ 0.000694459131931, 0.000257371715626 ], [ 0.00069445933438, 0.000257369949602 ], [ 0.000694458959685, 0.00025736875962 ], [ 0.000694458943528, 0.000257368746881 ], [ 0.000694455926556, 0.000257369106762 ], [ 0.00069445558144, 0.000257369520711 ] ] ] } },
{ "type": "Feature", "properties": { "parcel_id": "P100", "area_m2": 0.0, "buildings": 1, "bldg_area": 2.5758983005842625e-09, "land_use": "Low-density/open" }, "geometry": { "type": "Polygon", "coordinates": [ [ [ 0.000694456881625, 0.00025735012064 ], [ 0.000694457713315, 0.000257351397668 ], [ 0.000694457832268, 0.000257351487062 ], [ 0.000694459695844, 0.000257350702563 ], [ 0.000694461783, 0.000257347924687 ], [ 0.000694461313754, 0.00025734747151 ], [ 0.000694457810907, 0.000257347820304 ], [ 0.000694456881625, 0.00025735012064 ] ] ] } },
{ "type": "Feature", "properties": { "parcel_id": "P101", "area_m2": 0.0, "buildings": 1, "bldg_area": 4.545702883511795e-09, "land_use": "Low-density/open" }, "geometry": { "type": "Polygon", "coordinates": [ [ [ 0.000694455732338, 0.000257359840181 ], [ 0.000694456097059, 0.000257359901648 ], [ 0.00069445821195, 0.000257358332909 ], [ 0.000694458058863, 0.000257356104329 ], [ 0.000694457879404, 0.000257355325667 ], [ 0.00069445752252, 0.000257355440548 ], [ 0.000694455588285, 0.000257359248108 ], [ 0.000694455732338, 0.000257359840181 ] ] ] } },
{ "type": "Feature", "properties": { "parcel_id": "P102", "area_m2": 0.0, "buildings": 1, "bldg_area": 3.8411189365047652e-08, "land_use": "Low-density/open" }, "geometry": { "type": "Polygon", "coordinates": [ [ [ 0.000694454531513, 0.000257343342558 ], [ 0.000694457121172, 0.000257346531877 ], [ 0.000694457484468, 0.000257346695922 ], [ 0.000694459909831, 0.000257343601679 ], [ 0.000694459969168, 0.000257342109556 ], [ 0.000694455043443, 0.000257342109556 ], [ 0.000694454531513, 0.000257343342558 ] ] ] } },
{ "type": "Feature", "properties": { "parcel_id": "P103", "area_m2": 0.0, "buildings": 2, "bldg_area": 2.2703260512108687e-08, "land_use": "Low-density/open" }, "geometry": { "type": "Polygon", "coordinates": [ [ [ 0.000694459988951, 0.000257373986268 ], [ 0.000694457875574, 0.000257374330296 ], [ 0.000694457847318, 0.000257374588034 ], [ 0.000694460254184, 0.000257374588034 ], [ 0.000694459988951, 0.000257373986268 ] ] ] } },
{ "type": "Feature", "properties": { "parcel_id": "P104", "area_m2": 0.0, "buildings": 2, "bldg_area": 2.2779022226839601e-08, "land_use": "Low-density/open" }, "geometry": { "type": "Polygon", "coordinates": [ [ [ 0.000694457884569, 0.000257373995539 ], [ 0.000694459994778, 0.000257373674926 ], [ 0.000694460015795, 0.000257373627883 ], [ 0.000694459856894, 0.00025737347876 ], [ 0.000694459842734, 0.000257373474458 ], [ 0.000694457828375, 0.000257373121322 ], [ 0.000694457884569, 0.000257373995539 ] ] ] } },
{ "type": "Feature", "properties": { "parcel_id": "P105", "area_m2": 0.0, "buildings": 1, "bldg_area": 8.2075190951692788e-09, "land_use": "Low-density/open" }, "geometry": { "type": "Polygon", "coordinates": [ [ [ 0.000694456707547, 0.000257365385868 ], [ 0.000694458598031, 0.000257365584647 ], [ 0.000694459516142, 0.000257363174699 ], [ 0.000694459037927, 0.000257362441793 ], [ 0.000694458496571, 0.000257362012758 ], [ 0.000694456106893, 0.000257363486118 ], [ 0.000694456707547, 0.000257365385868 ] ] ] } },
{ "type": "Feature", "properties": { "parcel_id": "P106", "area_m2": 0.0, "buildings": 1, "bldg_area": 3.9648630706192565e-09, "land_use": "Low-density/open" }, "geometry": { "type": "Polygon", "coordinates": [ [ [ 0.000694458351729, 0.000257361579257 ], [ 0.000694459356059, 0.000257359761806 ], [ 0.000694458501953, 0.000257358624763 ], [ 0.000694458247559, 0.000257358358714 ], [ 0.00069445821195, 0.000257358332909 ], [ 0.000694456097059, 0.000257359901648 ], [ 0.000694458351729, 0.000257361579257 ] ] ] } },
{ "type": "Feature", "properties": { "parcel_id": "P107", "area_m2": 0.0, "buildings": 3, "bldg_area": 2.2804276131756258e-08, "land_use": "Low-density/open" }, "geometry": { "type": "Polygon", "coordinates": [ [ [ 0.000694457782002, 0.000257372794048 ], [ 0.000694457828375, 0.000257373121322 ], [ 0.000694459842734, 0.000257373474458 ], [ 0.000694458647864, 0.000257372112902 ], [ 0.000694457782002, 0.000257372794048 ] ] ] } },
{ "type": "Feature", "properties": { "parcel_id": "P108", "area_m2": 0.0, "buildings": 3, "bldg_area": 2.0708202024550371e-08, "land_use": "Low-density/open" }, "geometry": { "type": "Polygon", "coordinates": [ [ [ 0.000694458660408, 0.000257358264626 ], [ 0.000694459737, 0.000257357773915 ], [ 0.000694458058863, 0.000257356104329 ], [ 0.00069445821195, 0.000257358332909 ], [ 0.000694458247559, 0.000257358358714 ], [ 0.000694458660408, 0.000257358264626 ] ] ] } },
{ "type": "Feature", "properties": { "parcel_id": "P109", "area_m2": 0.0, "buildings": 2, "bldg_area": 1.3132030552183178e-08, "land_use": "Low-density/open" }, "geometry": { "type": "Polygon", "coordinates": [ [ [ 0.000694458247559, 0.000257358358714 ], [ 0.000694458501953, 0.000257358624763 ], [ 0.000694459800942, 0.000257358355633 ], [ 0.000694459705093, 0.000257358105904 ], [ 0.000694458660408, 0.000257358264626 ], [ 0.000694458247559, 0.000257358358714 ] ] ] } },
{ "type": "Feature", "properties": { "parcel_id": "P110", "area_m2": 0.0, "buildings": 1, "bldg_area": 6.8438082302224664e-09, "land_use": "Low-density/open" }, "geometry": { "type": "Polygon", "coordinates": [ [ [ 0.000694459586115, 0.000257371935998 ], [ 0.000694460426926, 0.000257372251747 ], [ 0.000694462267704, 0.000257372129181 ], [ 0.000694463702452, 0.00025737143349 ], [ 0.00069445933438, 0.000257369949602 ], [ 0.000694459131931, 0.000257371715626 ], [ 0.000694459586115, 0.000257371935998 ] ] ] } },
{ "type": "Feature", "properties": { "parcel_id": "P111", "area_m2": 0.0, "buildings": 3, "bldg_area": 2.2576990987563516e-08, "land_use": "Low-density/open" }, "geometry": { "type": "Polygon", "coordinates": [ [ [ 0.000694459131931, 0.000257371715626 ], [ 0.000694458647864, 0.000257372112902 ], [ 0.000694459842734, 0.000257373474458 ], [ 0.000694459856894, 0.00025737347876 ], [ 0.000694459586115, 0.000257371935998 ], [ 0.000694459131931, 0.000257371715626 ] ] ] } },
{ "type": "Feature", "properties": { "parcel_id": "P112", "area_m2": 0.0, "buildings": 2, "bldg_area": 2.0809217644274175e-08, "land_use": "Low-density/open" }, "geometry": { "type": "Polygon", "coordinates": [ [ [ 0.000694458496571, 0.000257362012758 ], [ 0.000694459037927, 0.000257362441793 ], [ 0.000694462448499, 0.000257359710816 ], [ 0.000694462286253, 0.000257359606988 ], [ 0.000694460779357, 0.000257359346274 ], [ 0.000694460659819, 0.000257359353002 ], [ 0.000694459356059, 0.000257359761806 ], [ 0.000694458351729, 0.000257361579257 ], [ 0.000694458496571, 0.000257362012758 ] ] ] } },
{ "type": "Feature", "properties": { "parcel_id": "P113", "area_m2": 0.0, "buildings": 2, "bldg_area": 4.4648903877251282e-08, "land_use": "Low-density/open" }, "geometry": { "type": "Polygon", "coordinates": [ [ [ 0.000694457810907, 0.000257347820304 ], [ 0.000694461313754, 0.00025734747151 ], [ 0.000694459909831, 0.000257343601679 ], [ 0.000694457484468, 0.000257346695922 ], [ 0.000694457810907, 0.000257347820304 ] ] ] } },
{ "type": "Feature", "properties": { "parcel_id": "P114", "area_m2": 0.0, "buildings": 1, "bldg_area": 5.7578903189396045e-09, "land_use": "Low-density/open" }, "geometry": { "type": "Polygon", "coordinates": [ [ [ 0.000694459909831, 0.000257343601679 ], [ 0.000694461313754, 0.00025734747151 ], [ 0.000694461783, 0.000257347924687 ], [ 0.000694461860389, 0.000257347936779 ], [ 0.000694462399646, 0.000257347591228 ], [ 0.000694463663255, 0.000257344148104 ], [ 0.00069446357065, 0.000257343461753 ], [ 0.000694462225631, 0.000257342109556 ], [ 0.000694459969168, 0.000257342109556 ], [ 0.000694459909831, 0.000257343601679 ] ] ] } },
{ "type": "Feature", "properties": { "parcel_id": "P115", "area_m2": 0.0, "buildings": 2, "bldg_area": 2.0657694214717056e-08, "land_use": "Low-density/open" }, "geometry": { "type": "Polygon", "coordinates": [ [ [ 0.000694458058863, 0.000257356104329 ], [ 0.000694459737, 0.000257357773915 ], [ 0.000694459754659, 0.000257357786946 ], [ 0.000694460237836, 0.000257357660015 ], [ 0.000694461020138, 0.000257356365215 ], [ 0.000694459543521, 0.000257354742111 ], [ 0.000694458561861, 0.000257354556416 ], [ 0.000694457879404, 0.000257355325667 ], [ 0.000694458058863, 0.000257356104329 ] ] ] } },
{ "type": "Feature", "properties": { "parcel_id": "P116", "area_m2": 0.0, "buildings": 2, "bldg_area": 4.9472399714560435e-08, "land_use": "Low-density/open" }, "geometry": { "type": "Polygon", "coordinates": [ [ [ 0.000694457832268, 0.000257351487062 ], [ 0.000694458561861, 0.000257354556416 ], [ 0.000694459543521, 0.000257354742111 ], [ 0.000694461684123, 0.000257353739441 ], [ 0.000694462296227, 0.000257352008028 ], [ 0.000694459695844, 0.000257350702563 ], [ 0.000694457832268, 0.000257351487062 ] ] ] } },
{ "type": "Feature", "properties": { "parcel_id": "P117", "area_m2": 0.0, "buildings": 1, "bldg_area": 1.3081522742368922e-08, "land_use": "Low-density/open" }, "geometry": { "type": "Polygon", "coordinates": [ [ [ 0.000694459705093, 0.000257358105904 ], [ 0.000694459800942, 0.000257358355633 ], [ 0.000694460659819, 0.000257359353002 ], [ 0.000694460779357, 0.000257359346274 ], [ 0.000694460237836, 0.000257357660015 ], [ 0.000694459754659, 0.000257357786946 ], [ 0.000694459705093, 0.000257358105904 ] ] ] } },
{ "type": "Feature", "properties": { "parcel_id": "P118", "area_m2": 0.0, "buildings": 2, "bldg_area": 1.3106776647285579e-08, "land_use": "Low-density/open" }, "geometry": { "type": "Polygon", "coordinates": [ [ [ 0.000694459754659, 0.000257357786946 ], [ 0.000694459737, 0.000257357773915 ], [ 0.000694458660408, 0.000257358264626 ], [ 0.000694459705093, 0.000257358105904 ], [ 0.000694459754659, 0.000257357786946 ] ] ] } },
{ "type": "Feature", "properties": { "parcel_id": "P119", "area_m2": 0.0, "buildings": 2, "bldg_area": 1.3106776647285579e-08, "land_use": "Low-density/open" }, "geometry": { "type": "Polygon", "coordinates": [ [ [ 0.000694459356059, 0.000257359761806 ], [ 0.000694460659819, 0.000257359353002 ], [ 0.000694459800942, 0.000257358355633 ], [ 0.000694458501953, 0.000257358624763 ], [ 0.000694459356059, 0.000257359761806 ] ] ] } },
{ "type": "Feature", "properties": { "parcel_id": "P120", "area_m2": 0.0, "buildings": 4, "bldg_area": 2.3031561275929942e-08, "land_use": "Low-density/open" }, "geometry": { "type": "Polygon", "coordinates": [ [ [ 0.000694457875574, 0.000257374330296 ], [ 0.000694459988951, 0.000257373986268 ], [ 0.000694459994778, 0.000257373674926 ], [ 0.000694457884569, 0.000257373995539 ], [ 0.000694457875574, 0.000257374330296 ] ] ] } },
{ "type": "Feature", "properties": { "parcel_id": "P121", "area_m2": 0.0, "buildings": 1, "bldg_area": 2.6971170441842182e-08, "land_use": "Low-density/open" }, "geometry": { "type": "Polygon", "coordinates": [ [ [ 0.000694458959685, 0.00025736875962 ], [ 0.000694461475224, 0.000257368337843 ], [ 0.000694462931333, 0.0002573657365 ], [ 0.00069445901434, 0.000257366267456 ], [ 0.000694458943528, 0.000257368746881 ], [ 0.000694458959685, 0.00025736875962 ] ] ] } },
{ "type": "Feature", "properties": { "parcel_id": "P122", "area_m2": 0.0, "buildings": 2, "bldg_area": 2.2551737082665917e-08, "land_use": "Low-density/open" }, "geometry": { "type": "Polygon", "coordinates": [ [ [ 0.000694460015795, 0.000257373627883 ], [ 0.000694460371457, 0.000257373420911 ], [ 0.000694460426926, 0.000257372251747 ], [ 0.000694459586115, 0.000257371935998 ], [ 0.000694459856894, 0.00025737347876 ], [ 0.000694460015795, 0.000257373627883 ] ] ] } },
{ "type": "Feature", "properties": { "parcel_id": "P123", "area_m2": 0.0, "buildings": 2, "bldg_area": 5.485148145994076e-08, "land_use": "Low-density/open" }, "geometry": { "type": "Polygon", "coordinates": [ [ [ 0.000694460015795, 0.000257373627883 ], [ 0.000694459994778, 0.000257373674926 ], [ 0.000694459988951, 0.000257373986268 ], [ 0.000694460254184, 0.000257374588034 ], [ 0.000694461161227, 0.000257374588034 ], [ 0.000694461174026, 0.000257374028716 ], [ 0.000694460371457, 0.000257373420911 ], [ 0.000694460015795, 0.000257373627883 ] ] ] } },
{ "type": "Feature", "properties": { "parcel_id": "P124", "area_m2": 0.0, "buildings": 1, "bldg_area": 1.1212733779165194e-08, "land_use": "Low-density/open" }, "geometry": { "type": "Polygon", "coordinates": [ [ [ 0.000694458598031, 0.000257365584647 ], [ 0.00069445901434, 0.000257366267456 ], [ 0.000694462931333, 0.0002573657365 ], [ 0.000694465062712, 0.000257364109731 ], [ 0.000694459516142, 0.000257363174699 ], [ 0.000694458598031, 0.000257365584647 ] ] ] } },
{ "type": "Feature", "properties": { "parcel_id": "P125", "area_m2": 0.0, "buildings": 3, "bldg_area": 2.0758709834345569e-08, "land_use": "Low-density/open" }, "geometry": { "type": "Polygon", "coordinates": [ [ [ 0.000694460237836, 0.000257357660015 ], [ 0.000694460779357, 0.000257359346274 ], [ 0.000694462286253, 0.000257359606988 ], [ 0.000694461082273, 0.000257356401091 ], [ 0.000694461020138, 0.000257356365215 ], [ 0.000694460237836, 0.000257357660015 ] ] ] } },
{ "type": "Feature", "properties": { "parcel_id": "P126", "area_m2": 0.0, "buildings": 1, "bldg_area": 3.2324998282191501e-08, "land_use": "Low-density/open" }, "geometry": { "type": "Polygon", "coordinates": [ [ [ 0.00069446545266, 0.000257372283205 ], [ 0.000694465206002, 0.000257371582965 ], [ 0.000694463973295, 0.000257371378537 ], [ 0.000694463702452, 0.00025737143349 ], [ 0.000694462267704, 0.000257372129181 ], [ 0.000694461174026, 0.000257374028716 ], [ 0.000694461161227, 0.000257374588034 ], [ 0.000694465680617, 0.000257374588034 ], [ 0.00069446545266, 0.000257372283205 ] ] ] } },
{ "type": "Feature", "properties": { "parcel_id": "P127", "area_m2": 0.0, "buildings": 1, "bldg_area": 1.2803729788400039e-08, "land_use": "Low-density/open" }, "geometry": { "type": "Polygon", "coordinates": [ [ [ 0.000694459516142, 0.000257363174699 ], [ 0.000694465062712, 0.000257364109731 ], [ 0.000694465125852, 0.000257364091111 ], [ 0.000694463209046, 0.000257359944283 ], [ 0.000694462448499, 0.000257359710816 ], [ 0.000694459037927, 0.000257362441793 ], [ 0.000694459516142, 0.000257363174699 ] ] ] } },
{ "type": "Feature", "properties": { "parcel_id": "P128", "area_m2": 0.0, "buildings": 1, "bldg_area": 7.8034566165408764e-09, "land_use": "Low-density/open" }, "geometry": { "type": "Polygon", "coordinates": [ [ [ 0.000694462448499, 0.000257359710816 ], [ 0.000694463209046, 0.000257359944283 ], [ 0.000694463427156, 0.000257359582159 ], [ 0.000694463849941, 0.000257358589672 ], [ 0.000694462853778, 0.000257356196948 ], [ 0.000694461082273, 0.000257356401091 ], [ 0.000694462286253, 0.000257359606988 ], [ 0.000694462448499, 0.000257359710816 ] ] ] } },
{ "type": "Feature", "properties": { "parcel_id": "P129", "area_m2": 0.0, "buildings": 1, "bldg_area": 1.328355398181653e-08, "land_use": "Low-density/open" }, "geometry": { "type": "Polygon", "coordinates": [ [ [ 0.000694463702452, 0.00025737143349 ], [ 0.000694463973295, 0.000257371378537 ], [ 0.000694461475224, 0.000257368337843 ], [ 0.000694458959685, 0.00025736875962 ], [ 0.00069445933438, 0.000257369949602 ], [ 0.000694463702452, 0.00025737143349 ] ] ] } },
{ "type": "Feature", "properties": { "parcel_id": "P130", "area_m2": 0.0, "buildings": 3, "bldg_area": 5.4952497079531157e-08, "land_use": "Low-density/open" }, "geometry": { "type": "Polygon", "coordinates": [ [ [ 0.000694460371457, 0.000257373420911 ], [ 0.000694461174026, 0.000257374028716 ], [ 0.000694462267704, 0.000257372129181 ], [ 0.000694460426926, 0.000257372251747 ], [ 0.000694460371457, 0.000257373420911 ] ] ] } },
{ "type": "Feature", "properties": { "parcel_id": "P131", "area_m2": 0.0, "buildings": 1, "bldg_area": 6.3387301319464925e-09, "land_use": "Low-density/open" }, "geometry": { "type": "Polygon", "coordinates": [ [ [ 0.000694462931333, 0.0002573657365 ], [ 0.000694461475224, 0.000257368337843 ], [ 0.000694463973295, 0.000257371378537 ], [ 0.000694465206002, 0.000257371582965 ], [ 0.000694467036399, 0.000257367911825 ], [ 0.000694467030165, 0.000257367691837 ], [ 0.000694466209213, 0.000257364460966 ], [ 0.000694465125852, 0.000257364091111 ], [ 0.000694465062712, 0.000257364109731 ], [ 0.000694462931333, 0.0002573657365 ] ] ] } },
{ "type": "Feature", "properties": { "parcel_id": "P132", "area_m2": 0.0, "buildings": 2, "bldg_area": 5.3765563549115296e-08, "land_use": "Low-density/open" }, "geometry": { "type": "Polygon", "coordinates": [ [ [ 0.000694461082273, 0.000257356401091 ], [ 0.000694462853778, 0.000257356196948 ], [ 0.000694463828822, 0.000257354867159 ], [ 0.000694461684123, 0.000257353739441 ], [ 0.000694459543521, 0.000257354742111 ], [ 0.000694461020138, 0.000257356365215 ], [ 0.000694461082273, 0.000257356401091 ] ] ] } },
{ "type": "Feature", "properties": { "parcel_id": "P133", "area_m2": 0.0, "buildings": 1, "bldg_area": 7.5256636626101105e-09, "land_use": "Low-density/open" }, "geometry": { "type": "Polygon", "coordinates": [ [ [ 0.000694459695844, 0.000257350702563 ], [ 0.000694462296227, 0.000257352008028 ], [ 0.000694464195285, 0.000257350919955 ], [ 0.000694461860389, 0.000257347936779 ], [ 0.000694461783, 0.000257347924687 ], [ 0.000694459695844, 0.000257350702563 ] ] ] } },
{ "type": "Feature", "properties": { "parcel_id": "P134", "area_m2": 0.0, "buildings": 1, "bldg_area": 4.0482009567451232e-08, "land_use": "Low-density/open" }, "geometry": { "type": "Polygon", "coordinates": [ [ [ 0.000694463828822, 0.000257354867159 ], [ 0.000694465454747, 0.000257354527983 ], [ 0.000694465282908, 0.000257351674858 ], [ 0.000694464868965, 0.000257351109428 ], [ 0.000694464818929, 0.000257351079013 ], [ 0.000694464195285, 0.000257350919955 ], [ 0.000694462296227, 0.000257352008028 ], [ 0.000694461684123, 0.000257353739441 ], [ 0.000694463828822, 0.000257354867159 ] ] ] } },
{ "type": "Feature", "properties": { "parcel_id": "P135", "area_m2": 0.0, "buildings": 2, "bldg_area": 2.4774080714931548e-08, "land_use": "Low-density/open" }, "geometry": { "type": "Polygon", "coordinates": [ [ [ 0.000694476852875, 0.000257371929815 ], [ 0.000694471070818, 0.000257374259712 ], [ 0.00069447105232, 0.000257374588034 ], [ 0.000694477065858, 0.000257374588034 ], [ 0.000694477065858, 0.00025737204963 ], [ 0.000694476852875, 0.000257371929815 ] ] ] } },
{ "type": "Feature", "properties": { "parcel_id": "P136", "area_m2": 0.0, "buildings": 1, "bldg_area": 2.7097439966215829e-08, "land_use": "Low-density/open" }, "geometry": { "type": "Polygon", "coordinates": [ [ [ 0.000694465680617, 0.000257374588034 ], [ 0.00069447105232, 0.000257374588034 ], [ 0.000694471070818, 0.000257374259712 ], [ 0.000694471165013, 0.000257372354488 ], [ 0.00069446545266, 0.000257372283205 ], [ 0.000694465680617, 0.000257374588034 ] ] ] } },
{ "type": "Feature", "properties": { "parcel_id": "P137", "area_m2": 0.0, "buildings": 1, "bldg_area": 4.5962106932307604e-09, "land_use": "Low-density/open" }, "geometry": { "type": "Polygon", "coordinates": [ [ [ 0.000694462853778, 0.000257356196948 ], [ 0.000694463849941, 0.000257358589672 ], [ 0.000694464859678, 0.000257357677218 ], [ 0.000694466191631, 0.000257355260583 ], [ 0.000694465454747, 0.000257354527983 ], [ 0.000694463828822, 0.000257354867159 ], [ 0.000694462853778, 0.000257356196948 ] ] ] } },
{ "type": "Feature", "properties": { "parcel_id": "P138", "area_m2": 0.0, "buildings": 2, "bldg_area": 1.3763378174832799e-08, "land_use": "Low-density/open" }, "geometry": { "type": "Polygon", "coordinates": [ [ [ 0.000694466209213, 0.000257364460966 ], [ 0.000694468539058, 0.000257362793588 ], [ 0.000694467166878, 0.000257358842276 ], [ 0.000694467068789, 0.000257358824009 ], [ 0.000694463427156, 0.000257359582159 ], [ 0.000694463209046, 0.000257359944283 ], [ 0.000694465125852, 0.000257364091111 ], [ 0.000694466209213, 0.000257364460966 ] ] ] } },
{ "type": "Feature", "properties": { "parcel_id": "P139", "area_m2": 0.0, "buildings": 1, "bldg_area": 1.3687616460120943e-08, "land_use": "Low-density/open" }, "geometry": { "type": "Polygon", "coordinates": [ [ [ 0.000694463427156, 0.000257359582159 ], [ 0.000694467068789, 0.000257358824009 ], [ 0.000694464859678, 0.000257357677218 ], [ 0.000694463849941, 0.000257358589672 ], [ 0.000694463427156, 0.000257359582159 ] ] ] } },
{ "type": "Feature", "properties": { "parcel_id": "P140", "area_m2": 0.0, "buildings": 1, "bldg_area": 1.2020858736021775e-08, "land_use": "Low-density/open" }, "geometry": { "type": "Polygon", "coordinates": [ [ [ 0.000694461860389, 0.000257347936779 ], [ 0.000694464195285, 0.000257350919955 ], [ 0.000694464818929, 0.000257351079013 ], [ 0.000694465441554, 0.000257347293568 ], [ 0.00069446479066, 0.00025734693189 ], [ 0.000694462399646, 0.000257347591228 ], [ 0.000694461860389, 0.000257347936779 ] ] ] } },
{ "type": "Feature", "properties": { "parcel_id": "P141", "area_m2": 0.0, "buildings": 1, "bldg_area": 1.5076581230003471e-08, "land_use": "Low-density/open" }, "geometry": { "type": "Polygon", "coordinates": [ [ [ 0.000694463663255, 0.000257344148104 ], [ 0.000694464807644, 0.000257346073604 ], [ 0.000694467071181, 0.000257343985507 ], [ 0.00069446357065, 0.000257343461753 ], [ 0.000694463663255, 0.000257344148104 ] ] ] } },
{ "type": "Feature", "properties": { "parcel_id": "P142", "area_m2": 0.0, "buildings": 1, "bldg_area": 6.4397457515750058e-09, "land_use": "Low-density/open" }, "geometry": { "type": "Polygon", "coordinates": [ [ [ 0.000694462399646, 0.000257347591228 ], [ 0.00069446479066, 0.00025734693189 ], [ 0.000694464807644, 0.000257346073604 ], [ 0.000694463663255, 0.000257344148104 ], [ 0.000694462399646, 0.000257347591228 ] ] ] } },
{ "type": "Feature", "properties": { "parcel_id": "P143", "area_m2": 0.0, "buildings": 2, "bldg_area": 1.9874823162586549e-08, "land_use": "Low-density/open" }, "geometry": { "type": "Polygon", "coordinates": [ [ [ 0.000694465441554, 0.000257347293568 ], [ 0.000694467741133, 0.000257347183243 ], [ 0.000694468745845, 0.000257343797382 ], [ 0.000694467071181, 0.000257343985507 ], [ 0.000694464807644, 0.000257346073604 ], [ 0.00069446479066, 0.00025734693189 ], [ 0.000694465441554, 0.000257347293568 ] ] ] } },
{ "type": "Feature", "properties": { "parcel_id": "P144", "area_m2": 0.0, "buildings": 1, "bldg_area": 1.0859179110312931e-08, "land_use": "Low-density/open" }, "geometry": { "type": "Polygon", "coordinates": [ [ [ 0.000694464868965, 0.000257351109428 ], [ 0.000694468116731, 0.000257348142116 ], [ 0.000694467741133, 0.000257347183243 ], [ 0.000694465441554, 0.000257347293568 ], [ 0.000694464818929, 0.000257351079013 ], [ 0.000694464868965, 0.000257351109428 ] ] ] } },
{ "type": "Feature", "properties": { "parcel_id": "P145", "area_m2": 0.0, "buildings": 2, "bldg_area": 1.0177323677887171e-08, "land_use": "Low-density/open" }, "geometry": { "type": "Polygon", "coordinates": [ [ [ 0.000694466191631, 0.000257355260583 ], [ 0.000694466630865, 0.000257355371383 ], [ 0.00069446736696, 0.000257354523536 ], [ 0.000694467892006, 0.000257352951582 ], [ 0.000694467889067, 0.000257352846719 ], [ 0.000694467241264, 0.000257351598686 ], [ 0.000694465282908, 0.000257351674858 ], [ 0.000694465454747, 0.000257354527983 ], [ 0.000694466191631, 0.000257355260583 ] ] ] } },
{ "type": "Feature", "properties": { "parcel_id": "P146", "area_m2": 0.0, "buildings": 2, "bldg_area": 1.7021131908033404e-08, "land_use": "Low-density/open" }, "geometry": { "type": "Polygon", "coordinates": [ [ [ 0.000694464859678, 0.000257357677218 ], [ 0.000694467068789, 0.000257358824009 ], [ 0.000694467166878, 0.000257358842276 ], [ 0.00069446795881, 0.000257356296605 ], [ 0.000694466630865, 0.000257355371383 ], [ 0.000694466191631, 0.000257355260583 ], [ 0.000694464859678, 0.000257357677218 ] ] ] } },
{ "type": "Feature", "properties": { "parcel_id": "P147", "area_m2": 0.0, "buildings": 2, "bldg_area": 6.5432867616837498e-08, "land_use": "Low-density/open" }, "geometry": { "type": "Polygon", "coordinates": [ [ [ 0.000694468407536, 0.000257348388382 ], [ 0.000694471257542, 0.000257348144481 ], [ 0.000694472244849, 0.000257347525256 ], [ 0.000694472395061, 0.00025734715222 ], [ 0.000694470587106, 0.000257344331596 ], [ 0.00069446910942, 0.000257343445619 ], [ 0.000694468745845, 0.000257343797382 ], [ 0.000694467741133, 0.000257347183243 ], [ 0.000694468116731, 0.000257348142116 ], [ 0.000694468407536, 0.000257348388382 ] ] ] } },
{ "type": "Feature", "properties": { "parcel_id": "P148", "area_m2": 0.0, "buildings": 1, "bldg_area": 1.9849569257765183e-08, "land_use": "Low-density/open" }, "geometry": { "type": "Polygon", "coordinates": [ [ [ 0.000694468116731, 0.000257348142116 ], [ 0.000694464868965, 0.000257351109428 ], [ 0.000694465282908, 0.000257351674858 ], [ 0.000694467241264, 0.000257351598686 ], [ 0.000694468409698, 0.00025735120302 ], [ 0.000694468993597, 0.000257350432245 ], [ 0.000694468407536, 0.000257348388382 ], [ 0.000694468116731, 0.000257348142116 ] ] ] } },
{ "type": "Feature", "properties": { "parcel_id": "P149", "area_m2": 0.0, "buildings": 1, "bldg_area": 2.0102108306969874e-08, "land_use": "Low-density/open" }, "geometry": { "type": "Polygon", "coordinates": [ [ [ 0.00069446795881, 0.000257356296605 ], [ 0.000694469653435, 0.000257356459568 ], [ 0.000694471675925, 0.000257354761183 ], [ 0.000694470453396, 0.000257353527395 ], [ 0.000694468587911, 0.000257353639764 ], [ 0.00069446736696, 0.000257354523536 ], [ 0.000694466630865, 0.000257355371383 ], [ 0.00069446795881, 0.000257356296605 ] ] ] } },
{ "type": "Feature", "properties": { "parcel_id": "P150", "area_m2": 0.0, "buildings": 2, "bldg_area": 1.1349104865677027e-07, "land_use": "Low-density/open" }, "geometry": { "type": "Polygon", "coordinates": [ [ [ 0.000694467030165, 0.000257367691837 ], [ 0.000694472037541, 0.000257367067283 ], [ 0.000694473279624, 0.000257364494025 ], [ 0.000694473253912, 0.000257362336365 ], [ 0.000694472961925, 0.00025736212413 ], [ 0.000694471184974, 0.000257361947844 ], [ 0.000694468539058, 0.000257362793588 ], [ 0.000694466209213, 0.000257364460966 ], [ 0.000694467030165, 0.000257367691837 ] ] ] } },
{ "type": "Feature", "properties": { "parcel_id": "P151", "area_m2": 0.0, "buildings": 3, "bldg_area": 1.0253085392579968e-08, "land_use": "Low-density/open" }, "geometry": { "type": "Polygon", "coordinates": [ [ [ 0.000694467241264, 0.000257351598686 ], [ 0.000694467889067, 0.000257352846719 ], [ 0.000694468418909, 0.000257352767442 ], [ 0.000694468801136, 0.000257351983447 ], [ 0.000694468409698, 0.00025735120302 ], [ 0.000694467241264, 0.000257351598686 ] ] ] } },
{ "type": "Feature", "properties": { "parcel_id": "P152", "area_m2": 0.0, "buildings": 1, "bldg_area": 3.5102927822528304e-09, "land_use": "Low-density/open" }, "geometry": { "type": "Polygon", "coordinates": [ [ [ 0.000694468539058, 0.000257362793588 ], [ 0.000694471184974, 0.000257361947844 ], [ 0.000694469653435, 0.000257356459568 ], [ 0.00069446795881, 0.000257356296605 ], [ 0.000694467166878, 0.000257358842276 ], [ 0.000694468539058, 0.000257362793588 ] ] ] } },
{ "type": "Feature", "properties": { "parcel_id": "P153", "area_m2": 0.0, "buildings": 4, "bldg_area": 3.0304685889773702e-08, "land_use": "Low-density/open" }, "geometry": { "type": "Polygon", "coordinates": [ [ [ 0.00069446736696, 0.000257354523536 ], [ 0.000694468587911, 0.000257353639764 ], [ 0.000694468499225, 0.000257353201845 ], [ 0.000694467892006, 0.000257352951582 ], [ 0.00069446736696, 0.000257354523536 ] ] ] } },
{ "type": "Feature", "properties": { "parcel_id": "P154", "area_m2": 0.0, "buildings": 2, "bldg_area": 2.2475975368163702e-08, "land_use": "Low-density/open" }, "geometry": { "type": "Polygon", "coordinates": [ [ [ 0.000694469300177, 0.000257352519457 ], [ 0.0006944694117, 0.000257352623968 ], [ 0.00069447033728, 0.000257353292025 ], [ 0.000694470418918, 0.000257350750032 ], [ 0.000694468993597, 0.000257350432245 ], [ 0.000694468409698, 0.00025735120302 ], [ 0.000694468801136, 0.000257351983447 ], [ 0.000694469300177, 0.000257352519457 ] ] ] } },
{ "type": "Feature", "properties": { "parcel_id": "P155", "area_m2": 0.0, "buildings": 2, "bldg_area": 6.161952797568007e-09, "land_use": "Low-density/open" }, "geometry": { "type": "Polygon", "coordinates": [ [ [ 0.000694468801136, 0.000257351983447 ], [ 0.000694468418909, 0.000257352767442 ], [ 0.000694468494721, 0.000257352978362 ], [ 0.000694469300177, 0.000257352519457 ], [ 0.000694468801136, 0.000257351983447 ] ] ] } },
{ "type": "Feature", "properties": { "parcel_id": "P156", "area_m2": 0.0, "buildings": 2, "bldg_area": 1.0177323677887171e-08, "land_use": "Low-density/open" }, "geometry": { "type": "Polygon", "coordinates": [ [ [ 0.000694467892006, 0.000257352951582 ], [ 0.000694468499225, 0.000257353201845 ], [ 0.000694468513944, 0.000257353135467 ], [ 0.000694468494721, 0.000257352978362 ], [ 0.000694468418909, 0.000257352767442 ], [ 0.000694467889067, 0.000257352846719 ], [ 0.000694467892006, 0.000257352951582 ] ] ] } },
{ "type": "Feature", "properties": { "parcel_id": "P157", "area_m2": 0.0, "buildings": 1, "bldg_area": 1.5682674947946074e-08, "land_use": "Low-density/open" }, "geometry": { "type": "Polygon", "coordinates": [ [ [ 0.00069446545266, 0.000257372283205 ], [ 0.000694471165013, 0.000257372354488 ], [ 0.000694471834049, 0.000257371049889 ], [ 0.000694471602225, 0.000257370612118 ], [ 0.000694467036399, 0.000257367911825 ], [ 0.000694465206002, 0.000257371582965 ], [ 0.00069446545266, 0.000257372283205 ] ] ] } },
{ "type": "Feature", "properties": { "parcel_id": "P158", "area_m2": 0.0, "buildings": 2, "bldg_area": 6.161952797568007e-09, "land_use": "Low-density/open" }, "geometry": { "type": "Polygon", "coordinates": [ [ [ 0.000694468513944, 0.000257353135467 ], [ 0.0006944694117, 0.000257352623968 ], [ 0.000694469300177, 0.000257352519457 ], [ 0.000694468494721, 0.000257352978362 ], [ 0.000694468513944, 0.000257353135467 ] ] ] } },
{ "type": "Feature", "properties": { "parcel_id": "P159", "area_m2": 0.0, "buildings": 3, "bldg_area": 2.6264061104518822e-08, "land_use": "Low-density/open" }, "geometry": { "type": "Polygon", "coordinates": [ [ [ 0.000694468499225, 0.000257353201845 ], [ 0.000694468587911, 0.000257353639764 ], [ 0.000694470453396, 0.000257353527395 ], [ 0.00069447033728, 0.000257353292025 ], [ 0.0006944694117, 0.000257352623968 ], [ 0.000694468513944, 0.000257353135467 ], [ 0.000694468499225, 0.000257353201845 ] ] ] } },
{ "type": "Feature", "properties": { "parcel_id": "P160", "area_m2": 0.0, "buildings": 1, "bldg_area": 1.8814159156468102e-08, "land_use": "Low-density/open" }, "geometry": { "type": "Polygon", "coordinates": [ [ [ 0.000694470453396, 0.000257353527395 ], [ 0.000694471675925, 0.000257354761183 ], [ 0.000694472599519, 0.000257354652391 ], [ 0.000694473854108, 0.00025735152362 ], [ 0.00069447373854, 0.000257351413511 ], [ 0.000694470686708, 0.000257350656984 ], [ 0.000694470418918, 0.000257350750032 ], [ 0.00069447033728, 0.000257353292025 ], [ 0.000694470453396, 0.000257353527395 ] ] ] } },
{ "type": "Feature", "properties": { "parcel_id": "P161", "area_m2": 0.0, "buildings": 2, "bldg_area": 2.4774080714931548e-08, "land_use": "Low-density/open" }, "geometry": { "type": "Polygon", "coordinates": [ [ [ 0.000694471070818, 0.000257374259712 ], [ 0.000694476852875, 0.000257371929815 ], [ 0.000694476296036, 0.000257371613841 ], [ 0.000694471834049, 0.000257371049889 ], [ 0.000694471165013, 0.000257372354488 ], [ 0.000694471070818, 0.000257374259712 ] ] ] } },
{ "type": "Feature", "properties": { "parcel_id": "P162", "area_m2": 0.0, "buildings": 1, "bldg_area": 4.876529037750389e-08, "land_use": "Low-density/open" }, "geometry": { "type": "Polygon", "coordinates": [ [ [ 0.000694470418918, 0.000257350750032 ], [ 0.000694470686708, 0.000257350656984 ], [ 0.000694471257542, 0.000257348144481 ], [ 0.000694468407536, 0.000257348388382 ], [ 0.000694468993597, 0.000257350432245 ], [ 0.000694470418918, 0.000257350750032 ] ] ] } },
{ "type": "Feature", "properties": { "parcel_id": "P163", "area_m2": 0.0, "buildings": 1, "bldg_area": 5.2023044111161894e-09, "land_use": "Low-density/open" }, "geometry": { "type": "Polygon", "coordinates": [ [ [ 0.000694469653435, 0.000257356459568 ], [ 0.000694471184974, 0.000257361947844 ], [ 0.000694472961925, 0.00025736212413 ], [ 0.000694474081569, 0.000257358104163 ], [ 0.000694473590059, 0.000257355609537 ], [ 0.000694472599519, 0.000257354652391 ], [ 0.000694471675925, 0.000257354761183 ], [ 0.000694469653435, 0.000257356459568 ] ] ] } },
{ "type": "Feature", "properties": { "parcel_id": "P164", "area_m2": 0.0, "buildings": 1, "bldg_area": 1.0227831487758602e-08, "land_use": "Low-density/open" }, "geometry": { "type": "Polygon", "coordinates": [ [ [ 0.000694472395061, 0.00025734715222 ], [ 0.000694473943113, 0.000257346822827 ], [ 0.000694474700988, 0.000257345912719 ], [ 0.000694474330365, 0.000257343448384 ], [ 0.000694470587106, 0.000257344331596 ], [ 0.000694472395061, 0.00025734715222 ] ] ] } },
{ "type": "Feature", "properties": { "parcel_id": "P165", "area_m2": 0.0, "buildings": 2, "bldg_area": 5.3083708116765768e-08, "land_use": "Low-density/open" }, "geometry": { "type": "Polygon", "coordinates": [ [ [ 0.000694470686708, 0.000257350656984 ], [ 0.00069447373854, 0.000257351413511 ], [ 0.000694472244849, 0.000257347525256 ], [ 0.000694471257542, 0.000257348144481 ], [ 0.000694470686708, 0.000257350656984 ] ] ] } },
{ "type": "Feature", "properties": { "parcel_id": "P166", "area_m2": 0.0, "buildings": 2, "bldg_area": 1.122788612209613e-07, "land_use": "Low-density/open" }, "geometry": { "type": "Polygon", "coordinates": [ [ [ 0.000694467036399, 0.000257367911825 ], [ 0.000694471602225, 0.000257370612118 ], [ 0.000694472433151, 0.000257368460536 ], [ 0.000694472037541, 0.000257367067283 ], [ 0.000694467030165, 0.000257367691837 ], [ 0.000694467036399, 0.000257367911825 ] ] ] } },
{ "type": "Feature", "properties": { "parcel_id": "P167", "area_m2": 0.0, "buildings": 1, "bldg_area": 1.0235407659222164e-07, "land_use": "Low-density/open" }, "geometry": { "type": "Polygon", "coordinates": [ [ [ 0.000694472037541, 0.000257367067283 ], [ 0.000694472433151, 0.000257368460536 ], [ 0.000694474721217, 0.000257368026542 ], [ 0.000694474816073, 0.000257367435547 ], [ 0.000694473279624, 0.000257364494025 ], [ 0.000694472037541, 0.000257367067283 ] ] ] } },
{ "type": "Feature", "properties": { "parcel_id": "P168", "area_m2": 0.0, "buildings": 2, "bldg_area": 4.2199275101364656e-08, "land_use": "Low-density/open" }, "geometry": { "type": "Polygon", "coordinates": [ [ [ 0.000694472244849, 0.000257347525256 ], [ 0.00069447373854, 0.000257351413511 ], [ 0.000694473854108, 0.00025735152362 ], [ 0.000694477065871, 0.000257350615683 ], [ 0.000694477065858, 0.000257350055621 ], [ 0.000694476997374, 0.000257349972633 ], [ 0.000694473943113, 0.000257346822827 ], [ 0.000694472395061, 0.00025734715222 ], [ 0.000694472244849, 0.000257347525256 ] ] ] } },
{ "type": "Feature", "properties": { "parcel_id": "P169", "area_m2": 0.0, "buildings": 2, "bldg_area": 1.1720337267818484e-07, "land_use": "Low-density/open" }, "geometry": { "type": "Polygon", "coordinates": [ [ [ 0.000694471602225, 0.000257370612118 ], [ 0.000694471834049, 0.000257371049889 ], [ 0.000694476296036, 0.000257371613841 ], [ 0.000694474721217, 0.000257368026542 ], [ 0.000694472433151, 0.000257368460536 ], [ 0.000694471602225, 0.000257370612118 ] ] ] } },
{ "type": "Feature", "properties": { "parcel_id": "P170", "area_m2": 0.0, "buildings": 1, "bldg_area": 1.6061483521486295e-08, "land_use": "Low-density/open" }, "geometry": { "type": "Polygon", "coordinates": [ [ [ 0.00069446910942, 0.000257343445619 ], [ 0.000694470587106, 0.000257344331596 ], [ 0.000694474330365, 0.000257343448384 ], [ 0.000694475271643, 0.000257342109556 ], [ 0.000694469130425, 0.000257342109556 ], [ 0.00069446910942, 0.000257343445619 ] ] ] } },
{ "type": "Feature", "properties": { "parcel_id": "P171", "area_m2": 0.0, "buildings": 2, "bldg_area": 1.3869444575484666e-07, "land_use": "Low-density/open" }, "geometry": { "type": "Polygon", "coordinates": [ [ [ 0.000694475017428, 0.000257367372841 ], [ 0.000694474816073, 0.000257367435547 ], [ 0.000694474721217, 0.000257368026542 ], [ 0.000694476296036, 0.000257371613841 ], [ 0.000694476852875, 0.000257371929815 ], [ 0.000694477065858, 0.00025737204963 ], [ 0.000694477065858, 0.000257367432351 ], [ 0.000694475017428, 0.000257367372841 ] ] ] } },
{ "type": "Feature", "properties": { "parcel_id": "P172", "area_m2": 0.0, "buildings": 3, "bldg_area": 1.198802865985882e-07, "land_use": "Low-density/open" }, "geometry": { "type": "Polygon", "coordinates": [ [ [ 0.000694473279624, 0.000257364494025 ], [ 0.000694474816073, 0.000257367435547 ], [ 0.000694475017428, 0.000257367372841 ], [ 0.000694477065871, 0.000257365621243 ], [ 0.000694477065858, 0.000257362655139 ], [ 0.000694473253912, 0.000257362336365 ], [ 0.000694473279624, 0.000257364494025 ] ] ] } },
{ "type": "Feature", "properties": { "parcel_id": "P173", "area_m2": 0.0, "buildings": 1, "bldg_area": 7.1973628988079134e-09, "land_use": "Low-density/open" }, "geometry": { "type": "Polygon", "coordinates": [ [ [ 0.000694474330365, 0.000257343448384 ], [ 0.000694474700988, 0.000257345912719 ], [ 0.000694475761678, 0.000257345850429 ], [ 0.000694477065858, 0.000257345502769 ], [ 0.000694477065871, 0.000257342109556 ], [ 0.000694475271643, 0.000257342109556 ], [ 0.000694474330365, 0.000257343448384 ] ] ] } },
{ "type": "Feature", "properties": { "parcel_id": "P174", "area_m2": 0.0, "buildings": 1, "bldg_area": 3.2830076381172629e-09, "land_use": "Low-density/open" }, "geometry": { "type": "Polygon", "coordinates": [ [ [ 0.000694473590059, 0.000257355609537 ], [ 0.000694475016868, 0.000257355382847 ], [ 0.000694477065858, 0.000257354695073 ], [ 0.000694477065871, 0.000257350615683 ], [ 0.000694473854108, 0.00025735152362 ], [ 0.000694472599519, 0.000257354652391 ], [ 0.000694473590059, 0.000257355609537 ] ] ] } },
{ "type": "Feature", "properties": { "parcel_id": "P175", "area_m2": 0.0, "buildings": 2, "bldg_area": 4.6265153791555251e-08, "land_use": "Low-density/open" }, "geometry": { "type": "Polygon", "coordinates": [ [ [ 0.000694473943113, 0.000257346822827 ], [ 0.000694476997374, 0.000257349972633 ], [ 0.000694475761678, 0.000257345850429 ], [ 0.000694474700988, 0.000257345912719 ], [ 0.000694473943113, 0.000257346822827 ] ] ] } },
{ "type": "Feature", "properties": { "parcel_id": "P176", "area_m2": 0.0, "buildings": 1, "bldg_area": 5.4548434599778318e-09, "land_use": "Low-density/open" }, "geometry": { "type": "Polygon", "coordinates": [ [ [ 0.000694473253912, 0.000257362336365 ], [ 0.000694477065858, 0.000257362655139 ], [ 0.000694477065871, 0.00025735820225 ], [ 0.000694476608227, 0.000257358041834 ], [ 0.000694475573694, 0.000257357916224 ], [ 0.000694474081569, 0.000257358104163 ], [ 0.000694472961925, 0.00025736212413 ], [ 0.000694473253912, 0.000257362336365 ] ] ] } },
{ "type": "Feature", "properties": { "parcel_id": "P177", "area_m2": 0.0, "buildings": 2, "bldg_area": 4.6265153791555251e-08, "land_use": "Low-density/open" }, "geometry": { "type": "Polygon", "coordinates": [ [ [ 0.000694475761678, 0.000257345850429 ], [ 0.000694476997374, 0.000257349972633 ], [ 0.000694477065858, 0.000257350055621 ], [ 0.000694477065858, 0.000257345502769 ], [ 0.000694475761678, 0.000257345850429 ] ] ] } },
{ "type": "Feature", "properties": { "parcel_id": "P178", "area_m2": 0.0, "buildings": 4, "bldg_area": 1.5622065576121321e-07, "land_use": "Low-density/open" }, "geometry": { "type": "Polygon", "coordinates": [ [ [ 0.000694475017428, 0.000257367372841 ], [ 0.000694477065858, 0.000257367432351 ], [ 0.000694477065871, 0.000257365621243 ], [ 0.000694475017428, 0.000257367372841 ] ] ] } },
{ "type": "Feature", "properties": { "parcel_id": "P179", "area_m2": 0.0, "buildings": 2, "bldg_area": 1.2071366546121906e-08, "land_use": "Low-density/open" }, "geometry": { "type": "Polygon", "coordinates": [ [ [ 0.000694474081569, 0.000257358104163 ], [ 0.000694475573694, 0.000257357916224 ], [ 0.000694476376326, 0.000257356828268 ], [ 0.00069447636938, 0.000257356717515 ], [ 0.000694475016868, 0.000257355382847 ], [ 0.000694473590059, 0.000257355609537 ], [ 0.000694474081569, 0.000257358104163 ] ] ] } },
{ "type": "Feature", "properties": { "parcel_id": "P180", "area_m2": 0.0, "buildings": 3, "bldg_area": 1.222288997562185e-08, "land_use": "Low-density/open" }, "geometry": { "type": "Polygon", "coordinates": [ [ [ 0.000694475016868, 0.000257355382847 ], [ 0.00069447636938, 0.000257356717515 ], [ 0.000694477065871, 0.000257356203863 ], [ 0.000694477065858, 0.000257354695073 ], [ 0.000694475016868, 0.000257355382847 ] ] ] } },
{ "type": "Feature", "properties": { "parcel_id": "P181", "area_m2": 0.0, "buildings": 2, "bldg_area": 7.0963472792175166e-09, "land_use": "Low-density/open" }, "geometry": { "type": "Polygon", "coordinates": [ [ [ 0.000694476722218, 0.000257357002671 ], [ 0.000694476608227, 0.000257358041834 ], [ 0.000694477065871, 0.00025735820225 ], [ 0.000694477065858, 0.000257356855419 ], [ 0.000694476722218, 0.000257357002671 ] ] ] } },
{ "type": "Feature", "properties": { "parcel_id": "P182", "area_m2": 0.0, "buildings": 3, "bldg_area": 1.2096620451038563e-08, "land_use": "Low-density/open" }, "geometry": { "type": "Polygon", "coordinates": [ [ [ 0.000694476608227, 0.000257358041834 ], [ 0.000694476722218, 0.000257357002671 ], [ 0.000694476376326, 0.000257356828268 ], [ 0.000694475573694, 0.000257357916224 ], [ 0.000694476608227, 0.000257358041834 ] ] ] } },
{ "type": "Feature", "properties": { "parcel_id": "P183", "area_m2": 0.0, "buildings": 1, "bldg_area": 7.0710933743199174e-09, "land_use": "Low-density/open" }, "geometry": { "type": "Polygon", "coordinates": [ [ [ 0.00069447636938, 0.000257356717515 ], [ 0.000694476376326, 0.000257356828268 ], [ 0.000694476722218, 0.000257357002671 ], [ 0.000694477065858, 0.000257356855419 ], [ 0.000694477065871, 0.000257356203863 ], [ 0.00069447636938, 0.000257356717515 ] ] ] } }
]
}
